{"type":"FeatureCollection","features":[{"type":"Feature","properties":{"CIRCUNS":"I","SECCION":"A","MANZANA":"14","PARCELA":"4 B","PARTIDA":"2955","CALLE":"Scully","Nª":"865","ZONIFICACI":"R1","PROPIETARI":"HERRERA ALICIA E","LUGAR_HIST":"SI","LUGAR":"1Chanta Cuatro (","DECLARACIó":"Lugar Significat","NUMERO":"1","_ids":["58"]},"geometry":{"type":"Polygon","coordinates":[[[-59.4416875,-34.4394561],[-59.4416708,-34.4394201],[-59.4416461,-34.4393906],[-59.4415367,-34.4391985],[-59.4416312,-34.4391589],[-59.441743,-34.4393432],[-59.4418339,-34.4392799],[-59.441878,-34.43933],[-59.4417729,-34.4394242],[-59.4416875,-34.4394561]]]}},{"type":"Feature","properties":{"CIRCUNS":"I","SECCION":"A","MANZANA":"43","PARCELA":"8","PARTIDA":"8297","Nª":"0","PROPIETARI":"MUNICIPALIDAD DE","RUBRO":"MUNICIPALIDAD DE","LUGAR_HIST":"SI","ORDENANZA":"83","FECHA_DEC_":"1988","LUGAR":"2Intendencia Mun","DECLARACIó":"Lugar significat","NUMERO":"2","_ids":["4","7","28"]},"geometry":{"type":"Polygon","coordinates":[[[-59.4475244,-34.4417484],[-59.4475534,-34.4418274],[-59.4473274,-34.4418984],[-59.4472374,-34.4416414],[-59.4472074,-34.4415564],[-59.4474284,-34.4414854],[-59.4474394,-34.4415164],[-59.4474684,-34.4415954],[-59.4474934,-34.4416644],[-59.4475244,-34.4417484]]]}},{"type":"Feature","properties":{"CIRCUNS":"I","SECCION":"A","MANZANA":"54","PARCELA":"2","PARTIDA":"3785","Nª":"0","PROPIETARI":"ESTADO NACIONAL","RUBRO":"Correo","LUGAR_HIST":"SI","LUGAR":"3Edificio Correo","DECLARACIó":"Lugar significat","NUMERO":"3","_ids":["5"]},"geometry":{"type":"Polygon","coordinates":[[[-59.4482866,-34.4418863],[-59.4479876,-34.4419773],[-59.4479426,-34.4418513],[-59.4479666,-34.4417973],[-59.4483276,-34.4416863],[-59.4484026,-34.4418503],[-59.4483736,-34.4418593],[-59.4482866,-34.4418863]]]}},{"type":"Feature","properties":{"CIRCUNS":"I","SECCION":"A","MANZANA":"56","PARCELA":"7","PARTIDA":"2381","Nª":"0","PROPIETARI":"ALBERDI BIBLIOTE","LUGAR_HIST":"SI","LUGAR":"4Edificio antigu","DECLARACIó":"Lugar significat","NUMERO":"4","_ids":["20"]},"geometry":{"type":"Polygon","coordinates":[[[-59.4462873,-34.4430074],[-59.4463223,-34.4430964],[-59.4462533,-34.4431164],[-59.4462233,-34.4431044],[-59.4462003,-34.4430324],[-59.4462873,-34.4430074]]]}},{"type":"Feature","properties":{"CIRCUNS":"I","SECCION":"A","MANZANA":"70","PARCELA":"12","PARTIDA":"2814","Nª":"0","PROPIETARI":"MUNICIPALIDAD DE","RUBRO":"Mercado Municipa","LUGAR_HIST":"SI","LUGAR":"5Ex terminal de","DECLARACIó":"Lugar significat","NUMERO":"5","_ids":["17"]},"geometry":{"type":"Polygon","coordinates":[[[-59.4458506,-34.4437695],[-59.4462786,-34.4436445],[-59.4463876,-34.4439645],[-59.4463616,-34.4440065],[-59.4459696,-34.4441245],[-59.4458506,-34.4437695]]]}},{"type":"Feature","properties":{"CIRCUNS":"I","SECCION":"A","MANZANA":"80","PARCELA":"1 C","PARTIDA":"3170","Nª":"0","PROPIETARI":"SOC ITALIANA DE SOC. MUTUOS","RUBRO":"SOC ITALIANA DE","LUGAR_HIST":"SI","DECRETO":"538","ORDENANZA":"150","FECHA_DEC_":"16/08/1994","LUGAR":"Fachada de la A I S M","DECLARACIó":"Lugar Significativo","NUMERO":"6","_ids":["38"]},"geometry":{"type":"Polygon","coordinates":[[[-59.4492377,-34.4435326],[-59.4492677,-34.4436126],[-59.4492167,-34.4436296],[-59.4491247,-34.4436616],[-59.4489887,-34.4433166],[-59.4491357,-34.4432676],[-59.4492047,-34.4434476],[-59.4492377,-34.4435326]]]}},{"type":"Feature","properties":{"CIRCUNS":"I","SECCION":"A","MANZANA":"80","PARCELA":"5 F","PARTIDA":"2101","Nª":"0","PROPIETARI":"CAMPORA HECTOR P","LUGAR_HIST":"SI","LUGAR":"Casa Cámpora","DECLARACIó":"Lugar significativo","NUMERO":"7","_ids":["24"]},"geometry":{"type":"Polygon","coordinates":[[[-59.4491861,-34.4440387],[-59.4491033,-34.4440669],[-59.4490613,-34.4439609],[-59.4487183,-34.4440679],[-59.4486783,-34.4439579],[-59.4491333,-34.4438089],[-59.4491861,-34.4440387]]]}},{"type":"Feature","properties":{"CIRCUNS":"I","SECCION":"A","MANZANA":"33","PARCELA":"11","PARTIDA":"2466","CALLE":"25 de Mayo","Nª":"394","ZONIFICACI":"CA","PROPIETARI":"CONDESSE NESTOR","LUGAR_HIST":"SI","ORDENANZA":"58","FECHA_DEC_":"1991","LUGAR":"8Edificio Casa d","DECLARACIó":"Lugar Significat","NUMERO":"8","_ids":["36"]},"geometry":{"type":"Polygon","coordinates":[[[-59.4455073,-34.4414343],[-59.4453583,-34.4414883],[-59.4452823,-34.4413143],[-59.4454513,-34.4412703],[-59.4455073,-34.4414343]]]}},{"type":"Feature","properties":{"CIRCUNS":"I","SECCION":"A","MANZANA":"68","PARCELA":"1","PARTIDA":"8247","CALLE":"Belgrano","Nª":"0","ZONIFICACI":"CA","PROPIETARI":"DESCONOCIDO","RUBRO":"Iglesia","LUGAR_HIST":"SI","LUGAR":"9Templo Parroqui","DECLARACIó":"Lugar histórico","NUMERO":"9","_ids":["3","73"]},"geometry":{"type":"Polygon","coordinates":[[[-59.4481927,-34.4430429],[-59.4478357,-34.4431569],[-59.4476697,-34.4428219],[-59.4480402,-34.4427154],[-59.4480882,-34.4427498],[-59.4481927,-34.4430429]]]}},{"type":"Feature","properties":{"CIRCUNS":"I","SECCION":"A","MANZANA":"69","PARCELA":"1","PARTIDA":"9017","Nª":"0","PROPIETARI":"PROVINCIA DE BA","RUBRO":"Colegio Nº1","LUGAR_HIST":"SI","LUGAR":"Escuela N°1","DECLARACIó":"Lugar significativo","NUMERO":"10","_ids":["16","S40"]},"geometry":{"type":"Polygon","coordinates":[[[-59.447245,-34.4433214],[-59.4469216,-34.4434215],[-59.4469682,-34.4435438],[-59.4468578,-34.4435759],[-59.4466717,-34.4430933],[-59.447055,-34.4429746],[-59.4471259,-34.4430031],[-59.447245,-34.4433214]]]}},{"type":"Feature","properties":{"CIRCUNS":"I","SECCION":"A","MANZANA":"82","PARCELA":"11","PARTIDA":"94","Nª":"0","PROPIETARI":"SOCIEDAD ESPAÑOLA","RUBRO":"Teatro","LUGAR_HIST":"SI","LUGAR":"Edificio Sociedad Española","DECLARACIó":"Lugar Significativo","NUMERO":"11","_ids":["48"]},"geometry":{"type":"Polygon","coordinates":[[[-59.447095,-34.4442772],[-59.4474997,-34.4441601],[-59.4475603,-34.4443235],[-59.4471543,-34.4444325],[-59.447095,-34.4442772]]]}},{"type":"Feature","properties":{"CIRCUNS":"I","SECCION":"A","MANZANA":"95","PARCELA":"11","PARTIDA":"2849","Nª":"0","PROPIETARI":"NOVELLI OSVALDO","RUBRO":"Farmacia","LUGAR_HIST":"SI","ORDENANZA":"1064/05","FECHA_DEC_":"29/12/2005","LUGAR":"Farmacia Novelli","DECLARACIó":"Lugar Significativo","NUMERO":"12","_ids":["57"]},"geometry":{"type":"Polygon","coordinates":[[[-59.4476394,-34.4452363],[-59.4478574,-34.4451673],[-59.4479157,-34.4453338],[-59.4478909,-34.4453622],[-59.4477024,-34.4454193],[-59.4476394,-34.4452363]]]}},{"type":"Feature","properties":{"CIRCUNS":"I","SECCION":"A","MANZANA":"70","PARCELA":"13","PARTIDA":"3232","Nª":"0","RUBRO":"Locales y Viviendas","LUGAR_HIST":"SI","LUGAR":"Edificio Terreri","DECLARACIó":"Lugar Significativo","NUMERO":"13","_ids":["59"]},"geometry":{"type":"Polygon","coordinates":[[[-59.4458506,-34.4437695],[-59.4458123,-34.4436407],[-59.4462246,-34.4435135],[-59.4462786,-34.4436445],[-59.4458506,-34.4437695]]]}},{"type":"Feature","properties":{"CIRCUNS":"I","SECCION":"C","MANZANA":"200","PARCELA":"2","PARTIDA":"2203","Nª":"0","PROPIETARI":"CROCE HUMBERTO E","LUGAR_HIST":"SI","DECRETO":"1300","ORDENANZA":"883","FECHA_DEC_":"07/11/2003","LUGAR":"14Herrería Croce","DECLARACIó":"Lugar Significat","NUMERO":"14","_ids":["45"]},"geometry":{"type":"Polygon","coordinates":[[[-59.4396426,-34.4439181],[-59.4394696,-34.4439781],[-59.4393726,-34.4436961],[-59.4395466,-34.4436341],[-59.4396426,-34.4439181]]]}},{"type":"Feature","properties":{"CIRCUNS":"I","SECCION":"C","MANZANA":"289","PARCELA":"2B","PARTIDA":"8181","Nª":"0","PROPIETARI":"DIOCESIS DE MERC","LUGAR_HIST":"SI","LUGAR":"15Capilla Monte","DECLARACIó":"Lugar significat","NUMERO":"15","_ids":["25"]},"geometry":{"type":"Polygon","coordinates":[[[-59.4405432,-34.4537668],[-59.4404232,-34.4538038],[-59.4403322,-34.4535608],[-59.4404502,-34.4535248],[-59.4405432,-34.4537668]]]}},{"type":"Feature","properties":{"CIRCUNS":"I","SECCION":"D","QUINTA":"21","PARTIDA":"0","Nª":"0","RUBRO":"Ex Cementerio","LUGAR_HIST":"SI","ORDENANZA":"119/88","FECHA_DEC_":"1988","LUGAR":"Cementerio Sud","DECLARACIó":"Lugar Histórico","NUMERO":"16","_ids":["10"]},"geometry":{"type":"Polygon","coordinates":[[[-59.4250215,-34.4657436],[-59.4242445,-34.4663176],[-59.4238795,-34.4652376],[-59.4247565,-34.4649846],[-59.4250215,-34.4657436]]]}},{"type":"Feature","properties":{"CIRCUNS":"I","SECCION":"A","MANZANA":"55","PARTIDA":"0","Nª":"0","LUGAR_HIST":"SI","ORDENANZA":"83","FECHA_DEC_":"1988","LUGAR":"17Plaza San Mart","DECLARACIó":"Lugares Históric","NUMERO":"17","_ids":["2","33"]},"geometry":{"type":"Polygon","coordinates":[[[-59.4480602,-34.4425854],[-59.4472442,-34.4428544],[-59.4469932,-34.4421454],[-59.4478052,-34.4418904],[-59.4480602,-34.4425854]]]}},{"type":"Feature","properties":{"CIRCUNS":"I","SECCION":"B","MANZANA":"131","PARTIDA":"0","Nª":"0","LUGAR_HIST":"SI","LUGAR":"18Monumento a la","DECLARACIó":"Patrimonio Artís","NUMERO":"18","_ids":["99","52","72"]},"geometry":{"type":"Polygon","coordinates":[[[-59.4487756,-34.4478547],[-59.4479706,-34.4480927],[-59.4477156,-34.4473947],[-59.4485126,-34.4471397],[-59.4487756,-34.4478547]]]}},{"type":"Feature","properties":{"CIRCUNS":"VII","SECCION":"A","MANZANA":"4","PARCELA":"7","PARTIDA":"0","Nª":"0","LUGAR_HIST":"SI","LUGAR":"19Antiguo edific","DECLARACIó":"Lugar significat","NUMERO":"19","_ids":["26","S50"]},"geometry":{"type":"Polygon","coordinates":[[[-59.322165,-34.2968168],[-59.321625,-34.2967768],[-59.321734,-34.2958758],[-59.322275,-34.2959148],[-59.322165,-34.2968168]]]}},{"type":"Feature","properties":{"CIRCUNS":"VII","PARCELA":"709 B","PARTIDA":"0","Nª":"0","LUGAR_HIST":"SI","ORDENANZA":"49","FECHA_DEC_":"1988","LUGAR":"20Posta de Figue","DECLARACIó":"Monumento Histór","NUMERO":"20","_ids":["1","S72"]},"geometry":{"type":"Polygon","coordinates":[[[-59.4070343,-34.3296827],[-59.4052513,-34.3295347],[-59.4042473,-34.3290837],[-59.4053833,-34.3278537],[-59.4075713,-34.3283287],[-59.4070343,-34.3296827]]]}},{"type":"Feature","properties":{"CIRCUNS":"XII","SECCION":"A","MANZANA":"9 A","PARCELA":"14","PARTIDA":"0","Nª":"0","LUGAR_HIST":"SI","LUGAR":"23Edificio de Co","DECLARACIó":"Lugar significat","NUMERO":"23","_ids":["43"]},"geometry":{"type":"Polygon","coordinates":[[[-59.3768656,-34.363391],[-59.3770686,-34.363565],[-59.3770816,-34.3636],[-59.3769786,-34.363693],[-59.3767566,-34.363502],[-59.3768656,-34.363391]]]}},{"type":"Feature","properties":{"CIRCUNS":"XII","SECCION":"A","MANZANA":"10","PARCELA":"1 B","PARTIDA":"0","Nª":"0","LUGAR_HIST":"SI","DECRETO":"1533","ORDENANZA":"1223","FECHA_DEC_":"11/10/2007","LUGAR":"25Fonda Sforzini","DECLARACIó":"Lugar Significat","NUMERO":"25","_ids":["62"]},"geometry":{"type":"Polygon","coordinates":[[[-59.375577,-34.3650824],[-59.375431,-34.3652204],[-59.37441,-34.3645074],[-59.374564,-34.3643614],[-59.375577,-34.3650824]]]}},{"type":"Feature","properties":{"CIRCUNS":"XII","SECCION":"A","MANZANA":"10","PARCELA":"6","PARTIDA":"0","Nª":"0","LUGAR_HIST":"SI","LUGAR":"26Club Recreativ","NUMERO":"26","_ids":["63"]},"geometry":{"type":"Polygon","coordinates":[[[-59.3743977,-34.364967],[-59.3751417,-34.365491],[-59.3749947,-34.365634],[-59.3742517,-34.365105],[-59.3743977,-34.364967]]]}},{"type":"Feature","properties":{"CIRCUNS":"XII","SECCION":"A","MANZANA":"10","PARCELA":"5","PARTIDA":"0","Nª":"0","LUGAR_HIST":"SI","LUGAR":"27Club Recreativ","NUMERO":"27","_ids":["63"]},"geometry":{"type":"Polygon","coordinates":[[[-59.3743869,-34.364967],[-59.3742409,-34.365105],[-59.3739699,-34.364913],[-59.3741089,-34.36477],[-59.3743869,-34.364967]]]}},{"type":"Feature","properties":{"CIRCUNS":"XII","SECCION":"A","MANZANA":"12","PARCELA":"1","PARTIDA":"0","Nª":"0","LUGAR_HIST":"SI","DECRETO":"154","ORDENANZA":"20","FECHA_DEC_":"30/03/1993","LUGAR":"28Casa Terrén","DECLARACIó":"Lugar Significat","NUMERO":"28","_ids":["37"]},"geometry":{"type":"Polygon","coordinates":[[[-59.3740349,-34.366653],[-59.373173,-34.367482],[-59.372155,-34.366759],[-59.372283,-34.366631],[-59.372255,-34.366609],[-59.372984,-34.365908],[-59.3740349,-34.366653]]]}},{"type":"Feature","properties":{"CIRCUNS":"XII","SECCION":"A","MANZANA":"5","PARCELA":"6","PARTIDA":"0","Nª":"0","LUGAR_HIST":"SI","LUGAR":"29Capilla Nuestr","DECLARACIó":"Lugar significat","NUMERO":"29","_ids":["27"]},"geometry":{"type":"Polygon","coordinates":[[[-59.3728918,-34.3658156],[-59.3729028,-34.3658876],[-59.3720858,-34.3666556],[-59.3720408,-34.3666716],[-59.3710559,-34.3659766],[-59.3714349,-34.3656206],[-59.3717679,-34.3658486],[-59.3722578,-34.3653706],[-59.3728918,-34.3658156]]]}},{"type":"Feature","properties":{"CIRCUNS":"IV","PARCELA":"301","PARTIDA":"0","Nª":"0","LUGAR_HIST":"SI","DECRETO":"747","ORDENANZA":"688","FECHA_DEC_":"17/09/2001","LUGAR":"30Boliche de Tej","DECLARACIó":"Lugar significat","NUMERO":"30","_ids":["40"]},"geometry":{"type":"Polygon","coordinates":[[[-59.2998694,-34.3683152],[-59.2971874,-34.3703872],[-59.2946814,-34.3682202],[-59.2974854,-34.3660532],[-59.2998694,-34.3683152]]]}},{"type":"Feature","properties":{"PARTIDA":"0","Nª":"0","LUGAR_HIST":"SI","LUGAR":"31Estación Ferro","DECLARACIó":"Lugar significat","NUMERO":"31","_ids":["18"]},"geometry":{"type":"Polygon","coordinates":[[[-59.436213,-34.437547],[-59.442546,-34.436903],[-59.442626,-34.437654],[-59.436992,-34.438218],[-59.436213,-34.437547]]]}},{"type":"Feature","properties":{"CIRCUNS":"I","SECCION":"C","MANZANA":"230A","PARCELA":"5","PARTIDA":"14900","RUBRO":"Plaza","LUGAR_HIST":"Lugar Histórico","ORDENANZA":"119/88","FECHA_DEC_":"1988","LUGAR":"Cruz del Obispo Escalada ","DECLARACIó":"Lugar Histórico","_ids":["8"]},"geometry":{"type":"Point","coordinates":[-59.4397108,-34.4481605]}},{"type":"Feature","properties":{"PROPIETARI":"Tiro Federal","RUBRO":"Deporte","LUGAR_HIST":"SI","ORDENANZA":"119/88","FECHA_DEC_":"1988","LUGAR":"Monumento a Mitre","DECLARACIó":"Lugar histórico","_ids":["9","32"]},"geometry":{"type":"Point","coordinates":[-59.4550071,-34.4478886]}},{"type":"Feature","properties":{"LUGAR":"Fuente Tiro Federal","DECLARACIó":"Patrimonio Artístico","_ids":["34"]},"geometry":{"type":"Point","coordinates":[-59.4548945,-34.4483508]}},{"type":"Feature","properties":{"PROPIETARI":"Tiro Federal","RUBRO":"Deporte","LUGAR_HIST":"SI","ORDENANZA":"119/88","FECHA_DEC_":"1988","LUGAR":"Polígono Tiro Federal","DECLARACIó":"Lugar Significativo","_ids":["21"]},"geometry":{"type":"Polygon","coordinates":[[[-59.4564072,-34.4513235],[-59.455109,-34.4487446],[-59.4547872,-34.4488286],[-59.4543097,-34.4477271],[-59.4553183,-34.4474396],[-59.4554202,-34.4477492],[-59.4555597,-34.4478775],[-59.4557528,-34.4479173],[-59.4558601,-34.4480589],[-59.4559566,-34.4482668],[-59.4559888,-34.4485897],[-59.4559566,-34.4488242],[-59.4560478,-34.4490719],[-59.4561873,-34.4492135],[-59.4562731,-34.4492754],[-59.4564448,-34.449386],[-59.4566325,-34.4494391],[-59.4567291,-34.4495806],[-59.4567345,-34.4497797],[-59.4567184,-34.4499832],[-59.4567023,-34.4502928],[-59.4567935,-34.4505229],[-59.456949,-34.4506202],[-59.4571851,-34.4506777],[-59.4574318,-34.4506954],[-59.4576035,-34.4507219],[-59.4576786,-34.4508104],[-59.4564072,-34.4513235]]]}},{"type":"Feature","properties":{"LUGAR_HIST":"SI","ORDENANZA":"119/88","FECHA_DEC_":"1988","LUGAR":"Hito Fundacional","DECLARACIó":"Lugar Histórico","_ids":["11"]},"geometry":{"type":"Point","coordinates":[-59.4507084,-34.4388788]}},{"type":"Feature","properties":{"RUBRO":"Ex Estación de Tren","LUGAR_HIST":"SI","ORDENANZA":"119/88","FECHA_DEC_":"1988","LUGAR":"Estación Azcuénaga","DECLARACIó":"Lugar Histórico","_ids":["12"]},"geometry":{"type":"Polygon","coordinates":[[[-59.3782163,-34.362836],[-59.3788279,-34.3632611],[-59.3793107,-34.3638279],[-59.3734313,-34.3695755],[-59.3721009,-34.3687165],[-59.3782163,-34.362836]]]}},{"type":"Feature","properties":{"CIRCUNS":"IV","PARCELA":"296C","RUBRO":"Estancia","LUGAR_HIST":"SI","ORDENANZA":"119/88","FECHA_DEC_":"1988","DECLARACIó":"Lugar Histórico","_ids":["14"]},"geometry":{"type":"Polygon","coordinates":[[[-59.2113117,-34.3802805],[-59.2141441,-34.3834327],[-59.2103032,-34.3864076],[-59.2066124,-34.3866556],[-59.2062262,-34.3881076],[-59.2095092,-34.3890284],[-59.2121914,-34.3925521],[-59.2108396,-34.3936499],[-59.2104319,-34.3925875],[-59.2104963,-34.3918084],[-59.2095951,-34.3901616],[-59.2090586,-34.3899846],[-59.2084793,-34.3901793],[-59.2077068,-34.39002],[-59.2068485,-34.3904272],[-59.206355,-34.390321],[-59.206076,-34.3897367],[-59.2061404,-34.3891877],[-59.2049388,-34.388143],[-59.2050031,-34.3876295],[-59.2051962,-34.3860889],[-59.2045954,-34.384991],[-59.2034367,-34.3832733],[-59.2020634,-34.3816441],[-59.2113117,-34.3802805]]]}},{"type":"Feature","properties":{"ORDENANZA":"119/88","FECHA_DEC_":"1988","LUGAR":"Edificio ex Casa Mendez","DECLARACIó":"Lugar Significativo","_ids":["15"]},"geometry":{"type":"Polygon","coordinates":[[[-59.4467523,-34.4419835],[-59.4467309,-34.4420277],[-59.4463527,-34.442156],[-59.4462159,-34.4418021],[-59.4463259,-34.4417733],[-59.44635,-34.4418065],[-59.4466477,-34.441718],[-59.4467523,-34.4419835]]]}},{"type":"Feature","properties":{"ORDENANZA":"119/88","FECHA_DEC_":"1988","LUGAR":"Tumba Enrique Larrañaga","DECLARACIó":"Lugar Significativo","_ids":["19"]},"geometry":{"type":"Point","coordinates":[-59.4613346,-34.4797222]}},{"type":"Feature","properties":{"ORDENANZA":"119/88","FECHA_DEC_":"1988","LUGAR":"Ex Feria de Alvis","DECLARACIó":"Lugar Significativo","_ids":["23"]},"geometry":{"type":"Polygon","coordinates":[[[-59.4523959,-34.4343052],[-59.4529646,-34.4357962],[-59.4518541,-34.4357299],[-59.4505881,-34.4358538],[-59.4499229,-34.4346459],[-59.4523959,-34.4343052]]]}},{"type":"Feature","properties":{"ORDENANZA":"83/88","FECHA_DEC_":"1988","LUGAR":"Monumento a la Libertad","DECLARACIó":"Patrimonio Artístico","_ids":["6"]},"geometry":{"type":"Point","coordinates":[-59.4474976,-34.4423612]}},{"type":"Feature","properties":{"ORDENANZA":"119/88","FECHA_DEC_":"1988","LUGAR":"Monumento a la Madre","DECLARACIó":"Patrimonio Artístico","_ids":["29"]},"geometry":{"type":"Point","coordinates":[-59.4482308,-34.4476363]}},{"type":"Feature","properties":{"ORDENANZA":"119/88","FECHA_DEC_":"1988","LUGAR":"Monumento a los caídos en Malvinas","DECLARACIó":"Patrimonio Artístico","_ids":["30","61","S56"]},"geometry":{"type":"Point","coordinates":[-59.4485017,-34.4474461]}},{"type":"Feature","properties":{"ORDENANZA":"119/88","FECHA_DEC_":"1988","LUGAR":"Monumento al Sembrador","DECLARACIó":"Patrimonio Artístico","_ids":["31","51"]},"geometry":{"type":"Point","coordinates":[-59.444695,-34.4378075]}},{"type":"Feature","properties":{"ORDENANZA":"119/88","FECHA_DEC_":"1988","LUGAR":"Fuente Plaza San Martín","DECLARACIó":"Patrimonio Artístico","_ids":["S57"]},"geometry":{"type":"Point","coordinates":[-59.4477044,-34.4425461]}},{"type":"Feature","properties":{"RUBRO":"Ex Escuela","ORDENANZA":"568/99","FECHA_DEC_":"02/12/1999","LUGAR":"Antiguo edificio Esc N°7","DECLARACIó":"Lugar Significativo","_ids":["39"]},"geometry":{"type":"Point","coordinates":[-59.6741931,-34.5195813]}},{"type":"Feature","properties":{"RUBRO":"Vivienda Ex Escuela","ORDENANZA":"688/01","FECHA_DEC_":"17/09/2001","LUGAR":"Ex Escuela N°5","DECLARACIó":"Lugar Significativo","_ids":["41"]},"geometry":{"type":"Point","coordinates":[-59.3595013,-34.4447395]}},{"type":"Feature","properties":{"RUBRO":"Escuela","ORDENANZA":"688/01","FECHA_DEC_":"17/09/2001","LUGAR":"Escuela Rural N° 9","DECLARACIó":"Lugar Significativo","_ids":["42"]},"geometry":{"type":"Point","coordinates":[-59.5142679,-34.396426]}},{"type":"Feature","properties":{"ORDENANZA":"883/03","FECHA_DEC_":"7/11/2003","LUGAR":"Ex Escuela N°12","DECLARACIó":"Lugar Significativa","_ids":["46","S18"]},"geometry":{"type":"Polygon","coordinates":[[[-59.4410576,-34.4403932],[-59.4410924,-34.4404883],[-59.4410281,-34.440537],[-59.4410495,-34.4405901],[-59.4409422,-34.4406188],[-59.4409074,-34.4405303],[-59.4409154,-34.4404927],[-59.4410576,-34.4403932]]]}},{"type":"Feature","properties":{"ORDENANZA":"883/03","FECHA_DEC_":"7/11/2003","LUGAR":"Monumento Inmigrantes y Gral Belgrano","_ids":["49"]},"geometry":{"type":"Point","coordinates":[-59.4476568,-34.4426401]}},{"type":"Feature","properties":{"ORDENANZA":"883/03","FECHA_DEC_":"7/11/2003","LUGAR":"Esculturas Primavera y Agricultura","DECLARACIó":"Patrimonio Artístico","_ids":["50"]},"geometry":{"type":"Point","coordinates":[-59.4429865,-34.4387128]}},{"type":"Feature","properties":{"ORDENANZA":"883/03","FECHA_DEC_":"7/11/2003","DECLARACIó":"Patrimonio Artístico","_ids":["53"]},"geometry":{"type":"Point","coordinates":[-59.4452541,-34.4375981]}},{"type":"Feature","properties":{"ORDENANZA":"1064/05","FECHA_DEC_":"29/12/2005","LUGAR":"Antigua Casa Perez","DECLARACIó":"Lugar Significativo","_ids":["56"]},"geometry":{"type":"Polygon","coordinates":[[[-59.4475312,-34.4428517],[-59.4476733,-34.4432056],[-59.4473783,-34.4432985],[-59.4472657,-34.4429512],[-59.4472978,-34.442918],[-59.4475312,-34.4428517]]]}},{"type":"Feature","properties":{"ORDENANZA":"1064/05","FECHA_DEC_":"29/12/2005","LUGAR":"Av Scully","DECLARACIó":"Lugar Significativo","_ids":["60"]},"geometry":{"type":"Polygon","coordinates":[[[-59.4471963,-34.4371864],[-59.4435593,-34.4383101],[-59.440126,-34.4410265],[-59.4400295,-34.4409735],[-59.4442566,-34.437673],[-59.4450398,-34.4376819],[-59.4471749,-34.437089],[-59.4471963,-34.4371864]]]}}]}