{"type":"FeatureCollection","features":[{"type":"Feature","properties":{"AREA":20332341.55169,"PERIMETER":20401.1953194,"TITULAR":"BURGOS, BERNABELA (TESTAMENTARIA)","EDIFICADO":"SI","AñO_DOMINI":1870,"Nº_Mensura":57,"AGRIMENSOR":"","Parcela_12":255,"Coef_Divis":79734.6727517},"geometry":{"type":"Polygon","coordinates":[[[-59.412377,-34.393264],[-59.369921,-34.424661],[-59.375095,-34.429467],[-59.35806,-34.442793],[-59.379565,-34.454005],[-59.434564,-34.41295],[-59.433653,-34.410171],[-59.431996,-34.407542],[-59.429778,-34.405527],[-59.428303,-34.403516],[-59.428123,-34.40259],[-59.426083,-34.401655],[-59.423301,-34.400563],[-59.4207,-34.400088],[-59.419217,-34.39931],[-59.417546,-34.39884],[-59.414778,-34.395743],[-59.412377,-34.393264]]]}},{"type":"Feature","properties":{"AREA":21214869.65268,"PERIMETER":21406.68818519,"TITULAR":"CASCO DE SARAVI, ANGELA (HEREDEROS)","EDIFICADO":"SI","AñO_DOMINI":1870,"Nº_Mensura":58,"AGRIMENSOR":"","Parcela_12":376,"Coef_Divis":56422.525672},"geometry":{"type":"Polygon","coordinates":[[[-59.515307,-34.396542],[-59.454015,-34.440072],[-59.454753,-34.441103],[-59.454494,-34.442747],[-59.455479,-34.443985],[-59.455968,-34.445015],[-59.455956,-34.446865],[-59.457676,-34.449545],[-59.457916,-34.45078],[-59.458406,-34.45181],[-59.458396,-34.453249],[-59.460363,-34.456135],[-59.461335,-34.459429],[-59.461821,-34.461076],[-59.465528,-34.463559],[-59.534805,-34.413681],[-59.515307,-34.396542]]]}},{"type":"Feature","properties":{"AREA":11834045.02044,"PERIMETER":15278.27881431,"TITULAR":"DIAZ, JOSE","EDIFICADO":"SI","AñO_DOMINI":1870,"Nº_Mensura":59,"AGRIMENSOR":"SAUBIDET","Parcela_12":178,"Coef_Divis":66483.3989912},"geometry":{"type":"Polygon","coordinates":[[[-59.393965,-34.461786],[-59.37839,-34.453536],[-59.349244,-34.491622],[-59.37429,-34.504087],[-59.384823,-34.489956],[-59.380742,-34.487931],[-59.398603,-34.463968],[-59.393965,-34.461786]]]}},{"type":"Feature","properties":{"AREA":3494609.771,"PERIMETER":11917.15454168,"TITULAR":"MUNICIPALIDAD \"EL SANTO\"","EDIFICADO":"SI","AñO_DOMINI":1871,"Nº_Mensura":60,"AGRIMENSOR":"SHUSTER","Parcela_12":3207,"Coef_Divis":1089.68187434},"geometry":{"type":"Polygon","coordinates":[[[-59.414057,-34.473448],[-59.453773,-34.442756],[-59.454615,-34.442066],[-59.454621,-34.441026],[-59.454069,-34.440098],[-59.45296,-34.438937],[-59.45185,-34.438007],[-59.45088,-34.436962],[-59.407517,-34.470294],[-59.414057,-34.473448]]]}},{"type":"Feature","properties":{"AREA":9827906.177988,"PERIMETER":18156.87042439,"TITULAR":"JUAN A. MARTINEZ","EDIFICADO":"SI","AñO_DOMINI":1871,"Nº_Mensura":61,"AGRIMENSOR":"VIDELA","Parcela_12":16,"Coef_Divis":614244.136124},"geometry":{"type":"Polygon","coordinates":[[[-59.692506,-34.569164],[-59.701149,-34.561511],[-59.64405,-34.509552],[-59.633417,-34.518018],[-59.692506,-34.569164]]]}},{"type":"Feature","properties":{"AREA":10407853.87047,"PERIMETER":16462.64461577,"TITULAR":"DE FIGUEROA, LIVIA P.","EDIFICADO":"SI","AñO_DOMINI":1872,"Nº_Mensura":62,"AGRIMENSOR":"SERNA","Parcela_12":10,"Coef_Divis":1040785.38705},"geometry":{"type":"Polygon","coordinates":[[[-59.46694,-34.314361],[-59.439036,-34.300257],[-59.432044,-34.308653],[-59.423404,-34.30409],[-59.427409,-34.297941],[-59.416299,-34.292544],[-59.404307,-34.307083],[-59.45246,-34.331155],[-59.46694,-34.314361]]]}},{"type":"Feature","properties":{"AREA":21364205.99961,"PERIMETER":18764.11007078,"TITULAR":"GUTIERREZ, ADVINCULA (HEREDEROS)","EDIFICADO":"SI","AñO_DOMINI":1872,"Nº_Mensura":63,"AGRIMENSOR":"SHUSTER","Parcela_12":26,"Coef_Divis":821700.230754},"geometry":{"type":"Polygon","coordinates":[[[-59.767518,-34.509324],[-59.739286,-34.484186],[-59.695221,-34.517594],[-59.72443,-34.543664],[-59.767766,-34.50953],[-59.767518,-34.509324]]]}},{"type":"Feature","properties":{"AREA":7109052.978897,"PERIMETER":15733.88053831,"TITULAR":"BASARTE, PEDRO ROMULO","EDIFICADO":"NO","AñO_DOMINI":1873,"Nº_Mensura":64,"AGRIMENSOR":"SHUSTER","Parcela_12":52,"Coef_Divis":136712.557286},"geometry":{"type":"Polygon","coordinates":[[[-59.427149,-34.552264],[-59.43684,-34.556329],[-59.476918,-34.504976],[-59.466797,-34.499816],[-59.427149,-34.552264]]]}},{"type":"Feature","properties":{"AREA":16000711.25218,"PERIMETER":17919.49034557,"TITULAR":"DE ACUÑA, CARMEN MONSALVO","EDIFICADO":"SI","AñO_DOMINI":1873,"Nº_Mensura":65,"AGRIMENSOR":"SHUSTER","Parcela_12":26,"Coef_Divis":615411.971238},"geometry":{"type":"Polygon","coordinates":[[[-59.50815,-34.524111],[-59.485697,-34.513054],[-59.446524,-34.56149],[-59.46986,-34.573654],[-59.50815,-34.524111]]]}},{"type":"Feature","properties":{"AREA":36268497.96768,"PERIMETER":34026.14070794,"TITULAR":"MONSALVO, FERNANDO","EDIFICADO":"SI","AñO_DOMINI":1874,"Nº_Mensura":66,"AGRIMENSOR":"SCHUSTER","Parcela_12":114,"Coef_Divis":318144.719015},"geometry":{"type":"Polygon","coordinates":[[[-59.5527,-34.450538],[-59.498638,-34.490165],[-59.475266,-34.486778],[-59.490174,-34.502922],[-59.518776,-34.519118],[-59.563843,-34.51344],[-59.56343,-34.507956],[-59.575304,-34.517135],[-59.59791,-34.498938],[-59.585604,-34.487933],[-59.563004,-34.505031],[-59.5527,-34.450538]]]}},{"type":"Feature","properties":{"AREA":56887590.67576,"PERIMETER":39805.40515412,"TITULAR":"TORRES, NATAL Y TORRES, MACARIO (HEREDEROS)","EDIFICADO":"NO","AñO_DOMINI":1874,"Nº_Mensura":67,"AGRIMENSOR":"CASCALLARES","Parcela_12":127,"Coef_Divis":447933.784849},"geometry":{"type":"Polygon","coordinates":[[[-59.418809,-34.399077],[-59.426095,-34.400623],[-59.428513,-34.40265],[-59.431533,-34.405688],[-59.434543,-34.410238],[-59.435134,-34.412761],[-59.43936,-34.417316],[-59.439945,-34.420847],[-59.442959,-34.424892],[-59.579702,-34.323633],[-59.542124,-34.307874],[-59.418809,-34.399077]]]}},{"type":"Feature","properties":{"AREA":15310529.7255,"PERIMETER":20067.43032639,"TITULAR":"WALLECE, ANA NUGENT DE (COHEREDEREOS)","EDIFICADO":"SI","AñO_DOMINI":1875,"Nº_Mensura":68,"AGRIMENSOR":"SCHUSTER","Parcela_12":103,"Coef_Divis":148645.919665},"geometry":{"type":"Polygon","coordinates":[[[-59.458065,-34.490226],[-59.44475,-34.484496],[-59.441308,-34.487316],[-59.43346,-34.483311],[-59.418267,-34.501949],[-59.42748,-34.506812],[-59.402247,-34.539576],[-59.420679,-34.549303],[-59.445224,-34.516249],[-59.444551,-34.514545],[-59.443542,-34.511706],[-59.443552,-34.510288],[-59.458065,-34.490226]]]}},{"type":"Feature","properties":{"AREA":25543592.91947,"PERIMETER":29962.77331135,"TITULAR":"SCULLY, SANTIAGO","EDIFICADO":"SI","AñO_DOMINI":1875,"Nº_Mensura":69,"AGRIMENSOR":"PICO","Parcela_12":313,"Coef_Divis":81608.9230654},"geometry":{"type":"Polygon","coordinates":[[[-59.331793,-34.309868],[-59.323321,-34.301317],[-59.324692,-34.300757],[-59.312143,-34.289631],[-59.279874,-34.308723],[-59.309037,-34.335256],[-59.286322,-34.35412],[-59.292771,-34.359544],[-59.341255,-34.323244],[-59.343636,-34.324674],[-59.349138,-34.320167],[-59.372232,-34.293072],[-59.362365,-34.287918],[-59.331793,-34.309868]]]}},{"type":"Feature","properties":{"AREA":472825.3189988,"PERIMETER":2753.950106296,"TITULAR":"GOROSTIAGA, DOMINGO","EDIFICADO":"NO","AñO_DOMINI":1876,"Nº_Mensura":70,"AGRIMENSOR":"SCHUSTER","Parcela_12":1,"Coef_Divis":472825.318999},"geometry":{"type":"Polygon","coordinates":[[[-59.640725,-34.547526],[-59.634963,-34.542885],[-59.629933,-34.547335],[-59.635311,-34.551497],[-59.640725,-34.547526]]]}},{"type":"Feature","properties":{"AREA":7352418.077872,"PERIMETER":13584.3994161,"TITULAR":"SCULLY, SANTIAGO","EDIFICADO":"SI","AñO_DOMINI":1876,"Nº_Mensura":71,"AGRIMENSOR":"PICO","Parcela_12":10,"Coef_Divis":735241.807787},"geometry":{"type":"Polygon","coordinates":[[[-59.389547,-34.295853],[-59.389837,-34.291177],[-59.391141,-34.287994],[-59.392961,-34.284176],[-59.393503,-34.280139],[-59.371891,-34.293],[-59.349138,-34.320096],[-59.363696,-34.326552],[-59.389547,-34.295853]]]}},{"type":"Feature","properties":{"AREA":3275529.64315,"PERIMETER":8346.433742183,"TITULAR":"ZACARELO, ESTANISLAO","EDIFICADO":"NO","AñO_DOMINI":1876,"Nº_Mensura":72,"AGRIMENSOR":"PICO","Parcela_12":6,"Coef_Divis":545921.607192},"geometry":{"type":"Polygon","coordinates":[[[-59.371891,-34.293],[-59.393503,-34.280139],[-59.393773,-34.278226],[-59.393536,-34.275461],[-59.393042,-34.272907],[-59.392545,-34.270779],[-59.392052,-34.268225],[-59.3622,-34.287209],[-59.371891,-34.293]]]}},{"type":"Feature","properties":{"AREA":2159301.689466,"PERIMETER":14743.11320568,"TITULAR":"QUEVEDO, PEDRO PABLO","EDIFICADO":"SI","AñO_DOMINI":1865,"Nº_Mensura":73,"AGRIMENSOR":"MUÑIZ","Parcela_12":12,"Coef_Divis":179941.807456},"geometry":{"type":"Polygon","coordinates":[[[-59.272466,-34.474024],[-59.274768,-34.475101],[-59.314494,-34.420476],[-59.310915,-34.418967],[-59.272466,-34.474024]]]}},{"type":"Feature","properties":{"AREA":143470816.304,"PERIMETER":61023.49783058,"TITULAR":"COLMENERO, RAMON","EDIFICADO":"SI","AñO_DOMINI":1840,"Nº_Mensura":74,"AGRIMENSOR":"PRAT","Parcela_12":311,"Coef_Divis":461320.952746},"geometry":{"type":"Polygon","coordinates":[[[-59.524819,-34.597685],[-59.570097,-34.563079],[-59.574346,-34.566118],[-59.649534,-34.505879],[-59.607688,-34.471481],[-59.562481,-34.505094],[-59.554247,-34.450635],[-59.498036,-34.490735],[-59.476149,-34.486611],[-59.491255,-34.504819],[-59.446435,-34.562077],[-59.473762,-34.575805],[-59.479902,-34.568272],[-59.50724,-34.581488],[-59.524819,-34.597685]]]}},{"type":"Feature","properties":{"AREA":58633917.10496,"PERIMETER":32023.20612323,"TITULAR":"GARSETE DE MARTINEZ, DOMINGA","EDIFICADO":"SI","AñO_DOMINI":1862,"Nº_Mensura":75,"AGRIMENSOR":"SAUVIDET","Parcela_12":126,"Coef_Divis":465348.548452},"geometry":{"type":"Polygon","coordinates":[[[-59.524723,-34.597436],[-59.570053,-34.563079],[-59.574477,-34.565662],[-59.605099,-34.540679],[-59.563638,-34.508122],[-59.563303,-34.513709],[-59.518182,-34.519042],[-59.479196,-34.568436],[-59.507196,-34.581488],[-59.524723,-34.597436]]]}},{"type":"Feature","properties":{"AREA":31366538.0771,"PERIMETER":23426.3712787,"TITULAR":"RODRIGUEZ, JOSE MARIA","EDIFICADO":"SI","AñO_DOMINI":1861,"Nº_Mensura":76,"AGRIMENSOR":"EQUIA","Parcela_12":48,"Coef_Divis":653469.543273},"geometry":{"type":"Polygon","coordinates":[[[-59.664475,-34.545021],[-59.633417,-34.518018],[-59.574302,-34.566117],[-59.606154,-34.592726],[-59.664475,-34.545021]]]}},{"type":"Feature","properties":{"AREA":1791715.469506,"PERIMETER":5668.13206573,"TITULAR":"ACEYTUNO, SILVERIO","EDIFICADO":"NO","AñO_DOMINI":1861,"Nº_Mensura":77,"AGRIMENSOR":"SAUBIDET","Parcela_12":6,"Coef_Divis":298619.244918},"geometry":{"type":"Polygon","coordinates":[[[-59.612529,-34.573788],[-59.605281,-34.567604],[-59.590841,-34.579646],[-59.598037,-34.585793],[-59.612529,-34.573788]]]}},{"type":"Feature","properties":{"AREA":5882660.313288,"PERIMETER":9848.929486589,"TITULAR":"MARTINEZ, NARCISO (HEREDEROS)","EDIFICADO":"NO","AñO_DOMINI":1873,"Nº_Mensura":78,"AGRIMENSOR":"SCHUSTER","Parcela_12":11,"Coef_Divis":534787.301208},"geometry":{"type":"Polygon","coordinates":[[[-59.518993,-34.564468],[-59.492824,-34.549909],[-59.478255,-34.567948],[-59.498264,-34.577812],[-59.518993,-34.564468]]]}},{"type":"Feature","properties":{"AREA":24006956.72076,"PERIMETER":22200.35161045,"TITULAR":"TORMY, GERONIMO","EDIFICADO":"SI","AñO_DOMINI":1855,"Nº_Mensura":79,"AGRIMENSOR":"AISPURNA","Parcela_12":32,"Coef_Divis":750217.397524},"geometry":{"type":"Polygon","coordinates":[[[-59.278189,-34.342654],[-59.256608,-34.324249],[-59.19366,-34.371081],[-59.196291,-34.373279],[-59.199015,-34.374431],[-59.200356,-34.377274],[-59.201357,-34.379832],[-59.203384,-34.382397],[-59.205422,-34.383827],[-59.206769,-34.386104],[-59.207437,-34.387809],[-59.208449,-34.389233],[-59.210495,-34.389813],[-59.212205,-34.389824],[-59.212192,-34.391242],[-59.213886,-34.392954],[-59.214718,-34.39403],[-59.278189,-34.342654]]]}},{"type":"Feature","properties":{"AREA":2538952.8294,"PERIMETER":16158.19808659,"TITULAR":"TORMEY, GERONIMO","EDIFICADO":"NO","AñO_DOMINI":1860,"Nº_Mensura":80,"AGRIMENSOR":"PICO","Parcela_12":0,"Coef_Divis":0},"geometry":{"type":"Polygon","coordinates":[[[-59.253969,-34.322249],[-59.191512,-34.368707],[-59.19366,-34.371081],[-59.256608,-34.324249],[-59.253969,-34.322249]]]}},{"type":"Feature","properties":{"AREA":9839860.864524,"PERIMETER":18335.82431217,"TITULAR":"TORMEY, GERONIMO (TESTAMENTARIA)","EDIFICADO":"SI","AñO_DOMINI":1876,"Nº_Mensura":81,"AGRIMENSOR":"IPARRAGUIRRE","Parcela_12":22,"Coef_Divis":447266.402933},"geometry":{"type":"Polygon","coordinates":[[[-59.266134,-34.332111],[-59.256608,-34.324249],[-59.19366,-34.371081],[-59.195617,-34.372907],[-59.198267,-34.374397],[-59.199141,-34.375876],[-59.200889,-34.378833],[-59.201761,-34.380557],[-59.266134,-34.332111]]]}},{"type":"Feature","properties":{"AREA":1326630.335777,"PERIMETER":5188.367262491,"TITULAR":"FRIAS, PASTOR (HEREDEROS)","EDIFICADO":"NO","AñO_DOMINI":1877,"Nº_Mensura":82,"AGRIMENSOR":"SCHUSTER","Parcela_12":7,"Coef_Divis":189518.619397},"geometry":{"type":"Polygon","coordinates":[[[-59.472924,-34.497309],[-59.469774,-34.501323],[-59.486948,-34.510566],[-59.491971,-34.503736],[-59.472924,-34.497309]]]}},{"type":"Feature","properties":{"AREA":3088307.854521,"PERIMETER":11920.7043351,"TITULAR":"SILVA, ANTONIO","EDIFICADO":"SI","AñO_DOMINI":1877,"Nº_Mensura":83,"AGRIMENSOR":"MUÑIZ","Parcela_12":19,"Coef_Divis":162542.518659},"geometry":{"type":"Polygon","coordinates":[[[-59.404698,-34.383275],[-59.362245,-34.415436],[-59.365812,-34.418783],[-59.386512,-34.402825],[-59.388396,-34.404467],[-59.408526,-34.388843],[-59.40808,-34.387862],[-59.406309,-34.387117],[-59.405655,-34.385457],[-59.404698,-34.383275]]]}},{"type":"Feature","properties":{"AREA":15131495.76196,"PERIMETER":20510.21112151,"TITULAR":"COSTA, ZOILO","EDIFICADO":"SI","AñO_DOMINI":1878,"Nº_Mensura":85,"AGRIMENSOR":"SCHUSTER","Parcela_12":0,"Coef_Divis":0},"geometry":{"type":"Polygon","coordinates":[[[-59.615514,-34.600254],[-59.627795,-34.611201],[-59.684981,-34.562881],[-59.664475,-34.545021],[-59.645088,-34.560887],[-59.653647,-34.568018],[-59.615514,-34.600254]]]}},{"type":"Feature","properties":{"AREA":8388895.282916,"PERIMETER":16390.94459383,"TITULAR":"MEZQUITA, MARCELINO Y RODRIGUEZ, CRUZ","EDIFICADO":"SI","AñO_DOMINI":0,"Nº_Mensura":86,"AGRIMENSOR":"MUÑIZ","Parcela_12":30,"Coef_Divis":279629.842764},"geometry":{"type":"Polygon","coordinates":[[[-59.491392,-34.503592],[-59.481497,-34.492615],[-59.474332,-34.486915],[-59.469375,-34.47638],[-59.465528,-34.463559],[-59.461821,-34.461076],[-59.433352,-34.48327],[-59.441582,-34.487466],[-59.44482,-34.484461],[-59.469913,-34.495033],[-59.466797,-34.499816],[-59.469774,-34.501323],[-59.472924,-34.497309],[-59.491392,-34.503592]]]}},{"type":"Feature","properties":{"AREA":4481439.307053,"PERIMETER":16211.39272353,"TITULAR":"QUEVEDO, JUAN E Y QUEVEDO DE QUEVEDO, MANUELA (T)","EDIFICADO":"SI","AñO_DOMINI":1878,"Nº_Mensura":87,"AGRIMENSOR":"SCHUSTER","Parcela_12":0,"Coef_Divis":0},"geometry":{"type":"Polygon","coordinates":[[[-59.30922,-34.416845],[-59.302191,-34.427408],[-59.298475,-34.425751],[-59.274151,-34.459884],[-59.270818,-34.458228],[-59.263204,-34.469046],[-59.272579,-34.473812],[-59.31107,-34.418662],[-59.30922,-34.416845]]]}},{"type":"Feature","properties":{"AREA":14233884.6931,"PERIMETER":25132.91517099,"TITULAR":"CUNNINGHAN, JUAN","EDIFICADO":"SI","AñO_DOMINI":1878,"Nº_Mensura":88,"AGRIMENSOR":"DIAZ","Parcela_12":0,"Coef_Divis":0},"geometry":{"type":"Polygon","coordinates":[[[-59.395028,-34.350476],[-59.392228,-34.346743],[-59.392247,-34.344043],[-59.391085,-34.341092],[-59.389421,-34.339233],[-59.29716,-34.410243],[-59.299946,-34.4113],[-59.302603,-34.412297],[-59.304378,-34.412552],[-59.305842,-34.414524],[-59.307908,-34.415518],[-59.309356,-34.416789],[-59.395028,-34.350476]]]}},{"type":"Feature","properties":{"AREA":9006520.095512,"PERIMETER":13694.16916888,"TITULAR":"SALA, ANTONIO H","EDIFICADO":"SI","AñO_DOMINI":1879,"Nº_Mensura":89,"AGRIMENSOR":"SCHUSTER","Parcela_12":0,"Coef_Divis":0},"geometry":{"type":"Polygon","coordinates":[[[-59.64666,-34.418893],[-59.630692,-34.405066],[-59.629913,-34.406606],[-59.627828,-34.4093],[-59.62575,-34.410276],[-59.62544,-34.413466],[-59.625425,-34.416657],[-59.623932,-34.419353],[-59.623032,-34.42205],[-59.623612,-34.424752],[-59.607561,-34.436484],[-59.607708,-34.436674],[-59.614489,-34.442771],[-59.61692,-34.441074],[-59.624438,-34.448668],[-59.652886,-34.427893],[-59.644606,-34.420439],[-59.64666,-34.418893]]]}},{"type":"Feature","properties":{"AREA":11951054.50146,"PERIMETER":14481.81536972,"TITULAR":"O´BRIEN, JUAN","EDIFICADO":"SI","AñO_DOMINI":1879,"Nº_Mensura":90,"AGRIMENSOR":"GIRONDO","Parcela_12":0,"Coef_Divis":0},"geometry":{"type":"Polygon","coordinates":[[[-59.275406,-34.30585],[-59.253866,-34.322169],[-59.263787,-34.329692],[-59.288596,-34.35195],[-59.309461,-34.336382],[-59.275406,-34.30585]]]}},{"type":"Feature","properties":{"AREA":16001294.14577,"PERIMETER":17772.70403904,"TITULAR":"PIQUETTO, JOSE","EDIFICADO":"SI","AñO_DOMINI":1879,"Nº_Mensura":91,"AGRIMENSOR":"MUÑIZ","Parcela_12":0,"Coef_Divis":0},"geometry":{"type":"Polygon","coordinates":[[[-59.44848,-34.433907],[-59.447604,-34.431939],[-59.44673,-34.429726],[-59.444381,-34.426524],[-59.443502,-34.425047],[-59.440559,-34.422088],[-59.43999,-34.418649],[-59.439113,-34.416926],[-59.437052,-34.414953],[-59.435287,-34.413227],[-59.379574,-34.454101],[-59.405758,-34.467476],[-59.417445,-34.458287],[-59.417145,-34.457671],[-59.44848,-34.433907]]]}},{"type":"Feature","properties":{"AREA":3238421.228771,"PERIMETER":10940.8019792,"TITULAR":"PIQUETTO, JOSE","EDIFICADO":"SI","AñO_DOMINI":1879,"Nº_Mensura":91,"AGRIMENSOR":"MUÑIZ","Parcela_12":0,"Coef_Divis":0},"geometry":{"type":"Polygon","coordinates":[[[-59.456972,-34.449164],[-59.456687,-34.447444],[-59.456698,-34.445726],[-59.455231,-34.44351],[-59.453773,-34.442756],[-59.414946,-34.473686],[-59.420791,-34.476863],[-59.456972,-34.449164]]]}},{"type":"Feature","properties":{"AREA":7055131.389297,"PERIMETER":17470.8742326,"TITULAR":"CUELLO DE MIRO, EUSTAQUIA","EDIFICADO":"SI","AñO_DOMINI":1878,"Nº_Mensura":92,"AGRIMENSOR":"MUÑIZ","Parcela_12":29,"Coef_Divis":243280.392734},"geometry":{"type":"Polygon","coordinates":[[[-59.709163,-34.555654],[-59.65015,-34.504123],[-59.64405,-34.509552],[-59.701149,-34.561511],[-59.709163,-34.555654]]]}},{"type":"Feature","properties":{"AREA":1414008.857696,"PERIMETER":5360.205180294,"TITULAR":"VELOZ Y LOPEZ, ANICETA","EDIFICADO":"SI","AñO_DOMINI":0,"Nº_Mensura":93,"AGRIMENSOR":"MUÑIZ","Parcela_12":0,"Coef_Divis":0},"geometry":{"type":"Polygon","coordinates":[[[-59.415397,-34.417724],[-59.418904,-34.420281],[-59.419847,-34.423972],[-59.434768,-34.412799],[-59.434326,-34.411627],[-59.433506,-34.40969],[-59.432516,-34.408166],[-59.43119,-34.407194],[-59.430737,-34.406644],[-59.415397,-34.417724]]]}},{"type":"Feature","properties":{"AREA":1032692.313708,"PERIMETER":7625.714486793,"TITULAR":"OJUEZ, CEFERINO","EDIFICADO":"NO","AñO_DOMINI":1878,"Nº_Mensura":94,"AGRIMENSOR":"SCHUSTER","Parcela_12":0,"Coef_Divis":0},"geometry":{"type":"Polygon","coordinates":[[[-59.446758,-34.520019],[-59.444072,-34.518558],[-59.423911,-34.545374],[-59.426402,-34.547042],[-59.446758,-34.520019]]]}},{"type":"Feature","properties":{"AREA":4953345.430301,"PERIMETER":15969.28585553,"TITULAR":"LEZCANO, SOLANO Y OTROS","EDIFICADO":"SI","AñO_DOMINI":1878,"Nº_Mensura":95,"AGRIMENSOR":"SCHUSTER","Parcela_12":0,"Coef_Divis":0},"geometry":{"type":"Polygon","coordinates":[[[-59.469913,-34.495033],[-59.45885,-34.49028],[-59.443552,-34.510288],[-59.443542,-34.511706],[-59.444627,-34.513496],[-59.444551,-34.514545],[-59.445224,-34.516249],[-59.444072,-34.518558],[-59.446758,-34.520019],[-59.426272,-34.54712],[-59.429516,-34.548859],[-59.469913,-34.495033]]]}},{"type":"Feature","properties":{"AREA":3425595.234774,"PERIMETER":7929.972904193,"TITULAR":"BOTANA, RUPERTO","EDIFICADO":"SI","AñO_DOMINI":1879,"Nº_Mensura":96,"AGRIMENSOR":"SCHUSTER","Parcela_12":0,"Coef_Divis":0},"geometry":{"type":"Polygon","coordinates":[[[-59.500862,-34.406145],[-59.49056,-34.413896],[-59.510161,-34.431775],[-59.520539,-34.424283],[-59.500862,-34.406145]]]}},{"type":"Feature","properties":{"AREA":8045680.561569,"PERIMETER":12425.04303384,"TITULAR":"TORMY, GERONIMO","EDIFICADO":"SI","AñO_DOMINI":1879,"Nº_Mensura":97,"AGRIMENSOR":"IPARRAGUIRRE","Parcela_12":0,"Coef_Divis":0},"geometry":{"type":"Polygon","coordinates":[[[-59.267861,-34.398805],[-59.253633,-34.391076],[-59.243401,-34.386246],[-59.228532,-34.40493],[-59.23092,-34.407342],[-59.232829,-34.409352],[-59.235488,-34.410988],[-59.236641,-34.409298],[-59.241018,-34.411588],[-59.239235,-34.413825],[-59.241639,-34.418379],[-59.243883,-34.421787],[-59.247777,-34.427404],[-59.267861,-34.398805]]]}},{"type":"Feature","properties":{"AREA":2809624.088863,"PERIMETER":14343.85485202,"TITULAR":"CASTRO, SALVADOR","EDIFICADO":"SI","AñO_DOMINI":1879,"Nº_Mensura":98,"AGRIMENSOR":"IPARRAGUIRRE","Parcela_12":10,"Coef_Divis":280962.408886},"geometry":{"type":"Polygon","coordinates":[[[-59.271948,-34.400802],[-59.267861,-34.398805],[-59.231562,-34.451728],[-59.235237,-34.453588],[-59.271948,-34.400802]]]}},{"type":"Feature","properties":{"AREA":5186199.149349,"PERIMETER":11989.09839387,"TITULAR":"BUSTOS, MATILDE Y SUSANA Y JUANA","EDIFICADO":"NO","AñO_DOMINI":1879,"Nº_Mensura":99,"AGRIMENSOR":"SCHUSTER","Parcela_12":0,"Coef_Divis":0},"geometry":{"type":"Polygon","coordinates":[[[-59.557019,-34.447899],[-59.553231,-34.450854],[-59.55439,-34.456887],[-59.574735,-34.473762],[-59.597671,-34.455501],[-59.588696,-34.44764],[-59.571547,-34.460536],[-59.557019,-34.447899]]]}},{"type":"Feature","properties":{"AREA":15193880.09866,"PERIMETER":20557.35958198,"TITULAR":"COSTA, ZOILO Y LIMA, J MARIA (HEREDEROS)","EDIFICADO":"SI","AñO_DOMINI":1880,"Nº_Mensura":107,"AGRIMENSOR":"SCHUSTER","Parcela_12":0,"Coef_Divis":0},"geometry":{"type":"Polygon","coordinates":[[[-59.684981,-34.562881],[-59.664475,-34.545021],[-59.645088,-34.560887],[-59.653647,-34.568018],[-59.615143,-34.600401],[-59.627795,-34.611201],[-59.684981,-34.562881]]]}},{"type":"Feature","properties":{"AREA":4247712.290607,"PERIMETER":11694.72522212,"TITULAR":"UNZUE, SATURNINO E","EDIFICADO":"SI","AñO_DOMINI":1882,"Nº_Mensura":124,"AGRIMENSOR":"SCHUSTER","Parcela_12":0,"Coef_Divis":0},"geometry":{"type":"Polygon","coordinates":[[[-59.69211,-34.56898],[-59.684981,-34.562881],[-59.646777,-34.595171],[-59.652746,-34.599916],[-59.69211,-34.56898]]]}},{"type":"Feature","properties":{"AREA":6110366.61607,"PERIMETER":13414.0186801,"TITULAR":"PUEBLO Y EJIDO SAN ANDRES DE GILES","EDIFICADO":"SI","AñO_DOMINI":1884,"Nº_Mensura":127,"AGRIMENSOR":"ORLANDINI","Parcela_12":4879,"Coef_Divis":1252.38094201},"geometry":{"type":"Polygon","coordinates":[[[-59.448862,-34.433888],[-59.416873,-34.45771],[-59.417351,-34.458312],[-59.404496,-34.468637],[-59.413869,-34.473477],[-59.437869,-34.455412],[-59.446565,-34.453254],[-59.446595,-34.44866],[-59.455779,-34.445505],[-59.454594,-34.442303],[-59.454607,-34.440306],[-59.450294,-34.436091],[-59.448862,-34.433888]]]}},{"type":"Feature","properties":{"AREA":104906098.7975,"PERIMETER":39526.9257305,"TITULAR":"PROYECTO DIVISIÓN QUINTAS CHACRAS EJIDO","EDIFICADO":"SI","AñO_DOMINI":1884,"Nº_Mensura":127,"AGRIMENSOR":"ORLANDINI","Parcela_12":0,"Coef_Divis":0},"geometry":{"type":"Polygon","coordinates":[[[-59.517335,-34.47167],[-59.486043,-34.385103],[-59.377522,-34.408778],[-59.410442,-34.498281],[-59.517335,-34.47167]]]}},{"type":"Feature","properties":{"AREA":7493719.768771,"PERIMETER":17762.06116491,"TITULAR":"CASADO, JOSE MARIA","EDIFICADO":"SI","AñO_DOMINI":1883,"Nº_Mensura":137,"AGRIMENSOR":"SCHUSTER","Parcela_12":84,"Coef_Divis":89210.9496282},"geometry":{"type":"Polygon","coordinates":[[[-59.716633,-34.549507],[-59.716333,-34.549755],[-59.716493,-34.549898],[-59.716633,-34.549507]],[[-59.716333,-34.549755],[-59.657975,-34.497692],[-59.650455,-34.503905],[-59.709163,-34.555654],[-59.716333,-34.549755]]]}},{"type":"Feature","properties":{"AREA":3490383.905192,"PERIMETER":10539.04141697,"TITULAR":"R DE LASCANO, MARIA DE LA CRUZ","EDIFICADO":"SI","AñO_DOMINI":1886,"Nº_Mensura":145,"AGRIMENSOR":"ORLANDINI","Parcela_12":0,"Coef_Divis":0},"geometry":{"type":"Polygon","coordinates":[[[-59.491392,-34.503592],[-59.481497,-34.492615],[-59.474653,-34.486646],[-59.469375,-34.47638],[-59.45395,-34.488174],[-59.469913,-34.495033],[-59.466797,-34.499816],[-59.469774,-34.501323],[-59.472924,-34.497309],[-59.491392,-34.503592]]]}},{"type":"Feature","properties":{"AREA":60737657.29945,"PERIMETER":41696.82810929,"TITULAR":"MORGAN, JORGE Y MORGAN, EDUARDO (HEREDEROS)","EDIFICADO":"NO","AñO_DOMINI":1894,"Nº_Mensura":168,"AGRIMENSOR":"DODDS","Parcela_12":0,"Coef_Divis":0},"geometry":{"type":"Polygon","coordinates":[[[-59.543649,-34.426641],[-59.589136,-34.391758],[-59.543382,-34.351341],[-59.510536,-34.331704],[-59.448446,-34.377],[-59.456583,-34.384581],[-59.441739,-34.395567],[-59.451033,-34.404089],[-59.465537,-34.392909],[-59.46854,-34.395691],[-59.477883,-34.388776],[-59.484012,-34.394835],[-59.50707,-34.378996],[-59.540638,-34.409942],[-59.531862,-34.416106],[-59.543649,-34.426641]]]}},{"type":"Feature","properties":{"AREA":8446864.888379,"PERIMETER":13177.44915367,"TITULAR":"FIGUEROA, JUAN Y MORALES DE FIGUEROA, F","EDIFICADO":"NO","AñO_DOMINI":1897,"Nº_Mensura":175,"AGRIMENSOR":"WEIGEL","Parcela_12":0,"Coef_Divis":0},"geometry":{"type":"Polygon","coordinates":[[[-59.419366,-34.31462],[-59.39174,-34.34153],[-59.391703,-34.343348],[-59.39201,-34.345214],[-59.394267,-34.348688],[-59.395352,-34.350984],[-59.396849,-34.356381],[-59.440131,-34.325063],[-59.419366,-34.31462]]]}},{"type":"Feature","properties":{"AREA":34795106.82221,"PERIMETER":25438.74703284,"TITULAR":"ROCA, JULIO A","EDIFICADO":"SI","AñO_DOMINI":1899,"Nº_Mensura":182,"AGRIMENSOR":"GONZALEZ","Parcela_12":0,"Coef_Divis":0},"geometry":{"type":"Polygon","coordinates":[[[-59.375343,-34.239853],[-59.300916,-34.264897],[-59.30843,-34.285567],[-59.324692,-34.300757],[-59.355253,-34.280836],[-59.361002,-34.286301],[-59.37229,-34.292984],[-59.393503,-34.280139],[-59.3938,-34.274907],[-59.392863,-34.271439],[-59.391933,-34.266907],[-59.392267,-34.265044],[-59.393886,-34.262921],[-59.393909,-34.259725],[-59.393923,-34.257861],[-59.392334,-34.255722],[-59.390751,-34.252784],[-59.387884,-34.250106],[-59.38565,-34.248497],[-59.383098,-34.24662],[-59.381187,-34.244746],[-59.37798,-34.24473],[-59.375343,-34.239853]]]}},{"type":"Feature","properties":{"AREA":16125502.87976,"PERIMETER":18609.85508844,"TITULAR":"DOONER DE WHEELER, MARIA","EDIFICADO":"SI","AñO_DOMINI":1903,"Nº_Mensura":186,"AGRIMENSOR":"DOYLE","Parcela_12":0,"Coef_Divis":0},"geometry":{"type":"Polygon","coordinates":[[[-59.46027,-34.364518],[-59.440143,-34.347545],[-59.443783,-34.344911],[-59.434601,-34.337171],[-59.42214,-34.346126],[-59.425813,-34.350835],[-59.39782,-34.373363],[-59.399181,-34.375346],[-59.399799,-34.378812],[-59.400751,-34.380415],[-59.40427,-34.382563],[-59.405849,-34.386299],[-59.408405,-34.388442],[-59.409677,-34.390313],[-59.410949,-34.392183],[-59.413459,-34.39418],[-59.444143,-34.371172],[-59.447928,-34.373722],[-59.46027,-34.364518]]]}},{"type":"Feature","properties":{"AREA":3866580.216966,"PERIMETER":20100.32293806,"TITULAR":"UNZUE, SATURNINO E HIJOS","EDIFICADO":"NO","AñO_DOMINI":1862,"Nº_Mensura":191,"AGRIMENSOR":"SAUBIDET","Parcela_12":0,"Coef_Divis":0},"geometry":{"type":"Polygon","coordinates":[[[-59.524723,-34.597436],[-59.601747,-34.538378],[-59.599247,-34.53597],[-59.521319,-34.594521],[-59.524723,-34.597436]]]}},{"type":"Feature","properties":{"AREA":19964653.88471,"PERIMETER":19913.72496513,"TITULAR":"GUTIERREZ DE ALEGRE, ANGELA","EDIFICADO":"SI","AñO_DOMINI":1878,"Nº_Mensura":84,"AGRIMENSOR":"SCHUSTER","Parcela_12":0,"Coef_Divis":0},"geometry":{"type":"Polygon","coordinates":[[[-59.670223,-34.487908],[-59.61625,-34.441645],[-59.593882,-34.458829],[-59.648715,-34.505333],[-59.670223,-34.487908]]]}},{"type":"Feature","properties":{"AREA":13016106.09165,"PERIMETER":16880.83219132,"TITULAR":"DE DIOS, ROSENDO","EDIFICADO":"SI","AñO_DOMINI":1870,"Nº_Mensura":56,"AGRIMENSOR":"IPARRAGUIRRE","Parcela_12":31,"Coef_Divis":419874.390053},"geometry":{"type":"Polygon","coordinates":[[[-59.450226,-34.330217],[-59.427046,-34.318382],[-59.394267,-34.348688],[-59.396106,-34.356154],[-59.39832,-34.360959],[-59.397968,-34.365219],[-59.397936,-34.369747],[-59.397911,-34.373209],[-59.439239,-34.341444],[-59.436981,-34.339177],[-59.450226,-34.330217]]]}},{"type":"Feature","properties":{"AREA":58706732.91281,"PERIMETER":30653.33903438,"TITULAR":"LIMA, MARIANO","EDIFICADO":"SI","AñO_DOMINI":1840,"Nº_Mensura":55,"AGRIMENSOR":"PRAT","Parcela_12":130,"Coef_Divis":451590.253175},"geometry":{"type":"Polygon","coordinates":[[[-59.692506,-34.569164],[-59.633251,-34.517805],[-59.574477,-34.565662],[-59.632846,-34.615511],[-59.692506,-34.569164]]]}},{"type":"Feature","properties":{"AREA":25043305.47761,"PERIMETER":24820.84328539,"TITULAR":"AVILA DE LA TORRE, MODESTA Y VALLADARES Y UNZUE","EDIFICADO":"SI","AñO_DOMINI":1869,"Nº_Mensura":54,"AGRIMENSOR":"DILLON","Parcela_12":49,"Coef_Divis":511087.86689},"geometry":{"type":"Polygon","coordinates":[[[-59.599185,-34.535706],[-59.579429,-34.520018],[-59.506594,-34.573187],[-59.498517,-34.577682],[-59.506601,-34.581911],[-59.521319,-34.594521],[-59.599185,-34.535706]]]}},{"type":"Feature","properties":{"AREA":22430490.38456,"PERIMETER":20212.52861909,"TITULAR":"GUTIERREZ DE MOLINA, PETRONA","EDIFICADO":"SI","AñO_DOMINI":1869,"Nº_Mensura":53,"AGRIMENSOR":"SCHUSTER","Parcela_12":24,"Coef_Divis":934603.766023},"geometry":{"type":"Polygon","coordinates":[[[-59.76844,-34.45362],[-59.730507,-34.433257],[-59.691478,-34.46261],[-59.727195,-34.493356],[-59.739355,-34.484086],[-59.734132,-34.479411],[-59.76844,-34.45362]]]}},{"type":"Feature","properties":{"AREA":16407279.8289,"PERIMETER":16446.63081838,"TITULAR":"CAPRILE Y PICASSO","EDIFICADO":"SI","AñO_DOMINI":1869,"Nº_Mensura":52,"AGRIMENSOR":"SCHUSTER","Parcela_12":12,"Coef_Divis":1367273.31908},"geometry":{"type":"Polygon","coordinates":[[[-59.687335,-34.459256],[-59.652886,-34.427893],[-59.624438,-34.448668],[-59.661627,-34.480545],[-59.687335,-34.459256]]]}},{"type":"Feature","properties":{"AREA":8602303.23587,"PERIMETER":16722.00598361,"TITULAR":"QUEVEDO DE RODRIGUEZ, FAUSTINA Y QUEVEDO, M Y F","EDIFICADO":"SI","AñO_DOMINI":1865,"Nº_Mensura":51,"AGRIMENSOR":"MUÑIZ","Parcela_12":67,"Coef_Divis":128392.58561},"geometry":{"type":"Polygon","coordinates":[[[-59.311455,-34.418298],[-59.308899,-34.416419],[-59.304752,-34.412667],[-59.302507,-34.412122],[-59.300901,-34.412112],[-59.261521,-34.468345],[-59.273053,-34.473475],[-59.311455,-34.418298]]]}},{"type":"Feature","properties":{"AREA":5259122.715777,"PERIMETER":15487.31969599,"TITULAR":"SILVA, ANTONIO B","EDIFICADO":"SI","AñO_DOMINI":1885,"Nº_Mensura":50,"AGRIMENSOR":"MUÑIZ","Parcela_12":16,"Coef_Divis":328695.169736},"geometry":{"type":"Polygon","coordinates":[[[-59.279136,-34.476707],[-59.318818,-34.422787],[-59.310915,-34.418967],[-59.273053,-34.473475],[-59.279136,-34.476707]]]}},{"type":"Feature","properties":{"AREA":5549594.720412,"PERIMETER":15659.10708538,"TITULAR":"QUEVEDO, PEDRO ANTONIO","EDIFICADO":"SI","AñO_DOMINI":1865,"Nº_Mensura":49,"AGRIMENSOR":"MUÑIZ","Parcela_12":20,"Coef_Divis":277479.736021},"geometry":{"type":"Polygon","coordinates":[[[-59.326202,-34.426739],[-59.318818,-34.422787],[-59.279473,-34.477129],[-59.286377,-34.481068],[-59.326202,-34.426739]]]}},{"type":"Feature","properties":{"AREA":29346492.85854,"PERIMETER":22252.48510372,"TITULAR":"LESCANO, FRANCISCO","EDIFICADO":"NO","AñO_DOMINI":1866,"Nº_Mensura":45,"AGRIMENSOR":"SAUBIDET","Parcela_12":202,"Coef_Divis":145279.667617},"geometry":{"type":"Polygon","coordinates":[[[-59.401446,-34.467527],[-59.362401,-34.519653],[-59.402419,-34.539553],[-59.441946,-34.487212],[-59.401446,-34.467527]]]}},{"type":"Feature","properties":{"AREA":32034028.96394,"PERIMETER":23140.06594255,"TITULAR":"GALEANO, MARTIN","EDIFICADO":"SI","AñO_DOMINI":1865,"Nº_Mensura":48,"AGRIMENSOR":"MUÑIZ","Parcela_12":194,"Coef_Divis":165123.860639},"geometry":{"type":"Polygon","coordinates":[[[-59.524527,-34.421403],[-59.465575,-34.463938],[-59.476105,-34.486611],[-59.498638,-34.490165],[-59.555767,-34.448875],[-59.524527,-34.421403]]]}},{"type":"Feature","properties":{"AREA":50146706.58476,"PERIMETER":28330.04069833,"TITULAR":"RODRIGUEZ, TADEO (HEREDEROS)","EDIFICADO":"SI","AñO_DOMINI":1868,"Nº_Mensura":47,"AGRIMENSOR":"DIFFERT","Parcela_12":374,"Coef_Divis":134082.103168},"geometry":{"type":"Polygon","coordinates":[[[-59.378264,-34.453254],[-59.310915,-34.418967],[-59.272293,-34.473323],[-59.338458,-34.506599],[-59.378264,-34.453254]]]}},{"type":"Feature","properties":{"AREA":10006970.78739,"PERIMETER":14218.75776783,"TITULAR":"CASCO, FRANCISCO ANTONIO","EDIFICADO":"SI","AñO_DOMINI":1868,"Nº_Mensura":46,"AGRIMENSOR":"DIFFERT","Parcela_12":307,"Coef_Divis":32595.9960501},"geometry":{"type":"Polygon","coordinates":[[[-59.497633,-34.408769],[-59.483088,-34.395617],[-59.442628,-34.425302],[-59.446057,-34.42752],[-59.446293,-34.429368],[-59.447271,-34.431219],[-59.448251,-34.432865],[-59.449477,-34.434717],[-59.450455,-34.436569],[-59.452427,-34.438014],[-59.454396,-34.439869],[-59.497633,-34.408769]]]}},{"type":"Feature","properties":{"AREA":11957819.58158,"PERIMETER":23825.18075869,"TITULAR":"TORRES, LORENZO","EDIFICADO":"SI","AñO_DOMINI":1867,"Nº_Mensura":44,"AGRIMENSOR":"MEYRELLES","Parcela_12":31,"Coef_Divis":385736.115535},"geometry":{"type":"Polygon","coordinates":[[[-59.39814,-34.373578],[-59.398212,-34.365737],[-59.39824,-34.361838],[-59.397512,-34.359783],[-59.396054,-34.356082],[-59.395581,-34.353002],[-59.395349,-34.350949],[-59.363247,-34.375614],[-59.372351,-34.382638],[-59.32153,-34.423815],[-59.328355,-34.42789],[-59.39814,-34.373578]]]}},{"type":"Feature","properties":{"AREA":9994034.516702,"PERIMETER":18224.1688095,"TITULAR":"FIGUEROA DE ALVAREZ, BENEDICTA Y CUFRE, VALENTIN","EDIFICADO":"SI","AñO_DOMINI":1867,"Nº_Mensura":43,"AGRIMENSOR":"MEYRELLES","Parcela_12":30,"Coef_Divis":333134.48389},"geometry":{"type":"Polygon","coordinates":[[[-59.385204,-34.321445],[-59.32054,-34.370485],[-59.329974,-34.37895],[-59.388883,-34.335128],[-59.387064,-34.333466],[-59.386602,-34.328949],[-59.38563,-34.326687],[-59.385651,-34.323815],[-59.385204,-34.321445]]]}},{"type":"Feature","properties":{"AREA":2074749.442146,"PERIMETER":14023.55952848,"TITULAR":"AFFRE, PABLO","EDIFICADO":"NO","AñO_DOMINI":1866,"Nº_Mensura":42,"AGRIMENSOR":"GONNET","Parcela_12":26,"Coef_Divis":79798.0554672},"geometry":{"type":"Polygon","coordinates":[[[-59.289953,-34.410624],[-59.287322,-34.409119],[-59.250342,-34.461231],[-59.253336,-34.462814],[-59.289953,-34.410624]]]}},{"type":"Feature","properties":{"AREA":16158446.31944,"PERIMETER":21145.2968693,"TITULAR":"BUSTOS DE MARTINEZ, CARMEN Y DUGGAN, MIGUEL","EDIFICADO":"SI","AñO_DOMINI":1867,"Nº_Mensura":41,"AGRIMENSOR":"GONNET","Parcela_12":25,"Coef_Divis":646337.852778},"geometry":{"type":"Polygon","coordinates":[[[-59.507021,-34.377304],[-59.579307,-34.323607],[-59.559564,-34.31533],[-59.492489,-34.365753],[-59.507021,-34.377304]]]}},{"type":"Feature","properties":{"AREA":37893821.56148,"PERIMETER":30980.05869165,"TITULAR":"DUGGAN, MIGUEL (PROPIEDAD PUBLICA DENUNCIADA POR)","EDIFICADO":"SI","AñO_DOMINI":1866,"Nº_Mensura":40,"AGRIMENSOR":"GONNET","Parcela_12":87,"Coef_Divis":435561.167373},"geometry":{"type":"Polygon","coordinates":[[[-59.543382,-34.351341],[-59.510536,-34.331704],[-59.418779,-34.398984],[-59.422228,-34.399709],[-59.427167,-34.401579],[-59.428635,-34.404048],[-59.430845,-34.406726],[-59.432317,-34.408785],[-59.434276,-34.411872],[-59.43525,-34.414339],[-59.438209,-34.416199],[-59.438692,-34.418048],[-59.477993,-34.389085],[-59.483896,-34.39506],[-59.543382,-34.351341]]]}},{"type":"Feature","properties":{"AREA":8529860.733232,"PERIMETER":17129.41772937,"TITULAR":"NORIEGA, MANUEL","EDIFICADO":"NO","AñO_DOMINI":1866,"Nº_Mensura":39,"AGRIMENSOR":"SAUBIDET","Parcela_12":58,"Coef_Divis":147066.564366},"geometry":{"type":"Polygon","coordinates":[[[-59.469898,-34.495134],[-59.458528,-34.490364],[-59.416498,-34.547418],[-59.427626,-34.551985],[-59.469898,-34.495134]]]}},{"type":"Feature","properties":{"AREA":30001057.3397,"PERIMETER":23579.52513007,"TITULAR":"MORGAN, EDUARDO","EDIFICADO":"SI","AñO_DOMINI":1866,"Nº_Mensura":38,"AGRIMENSOR":"COQUET","Parcela_12":41,"Coef_Divis":731733.105846},"geometry":{"type":"Polygon","coordinates":[[[-59.589136,-34.391758],[-59.543382,-34.351341],[-59.50711,-34.378249],[-59.540112,-34.409461],[-59.531862,-34.416106],[-59.543649,-34.426641],[-59.589136,-34.391758]]]}},{"type":"Feature","properties":{"AREA":50157962.51175,"PERIMETER":40768.22452247,"TITULAR":"MONSALVO DE ACUÑA, CARMEN","EDIFICADO":"SI","AñO_DOMINI":1866,"Nº_Mensura":37,"AGRIMENSOR":"FREMIOT","Parcela_12":121,"Coef_Divis":414528.6158},"geometry":{"type":"Polygon","coordinates":[[[-59.553231,-34.450854],[-59.497992,-34.490735],[-59.474653,-34.486646],[-59.491971,-34.503736],[-59.446391,-34.562077],[-59.469727,-34.574267],[-59.51459,-34.517398],[-59.518182,-34.519042],[-59.563303,-34.513709],[-59.553231,-34.450854]]]}},{"type":"Feature","properties":{"AREA":6188013.447571,"PERIMETER":15937.8315148,"TITULAR":"ORMACHEA, JUAN","EDIFICADO":"SI","AñO_DOMINI":1866,"Nº_Mensura":36,"AGRIMENSOR":"GONNET","Parcela_12":40,"Coef_Divis":154700.336189},"geometry":{"type":"Polygon","coordinates":[[[-59.253751,-34.462611],[-59.261679,-34.467882],[-59.301078,-34.41173],[-59.296799,-34.410338],[-59.29414,-34.412511],[-59.290853,-34.410851],[-59.253751,-34.462611]]]}},{"type":"Feature","properties":{"AREA":14276197.63025,"PERIMETER":19233.75344563,"TITULAR":"ROIS, JOSE (HEREDEROS)","EDIFICADO":"SI","AñO_DOMINI":1865,"Nº_Mensura":35,"AGRIMENSOR":"FREMIOT","Parcela_12":70,"Coef_Divis":203945.680432},"geometry":{"type":"Polygon","coordinates":[[[-59.35806,-34.442793],[-59.417546,-34.39884],[-59.416055,-34.397559],[-59.414748,-34.395638],[-59.413765,-34.394539],[-59.412127,-34.39289],[-59.410488,-34.39124],[-59.408851,-34.389317],[-59.407215,-34.387394],[-59.405254,-34.384649],[-59.340594,-34.434157],[-59.35806,-34.442793]]]}},{"type":"Feature","properties":{"AREA":35688689.66804,"PERIMETER":24901.43692239,"TITULAR":"GALEANO, SOTERO","EDIFICADO":"SI","AñO_DOMINI":1865,"Nº_Mensura":34,"AGRIMENSOR":"MUÑIZ","Parcela_12":199,"Coef_Divis":179340.149086},"geometry":{"type":"Polygon","coordinates":[[[-59.531862,-34.416106],[-59.465575,-34.463938],[-59.476105,-34.486611],[-59.497992,-34.490735],[-59.562583,-34.443557],[-59.531862,-34.416106]]]}},{"type":"Feature","properties":{"AREA":15480291.06405,"PERIMETER":19850.3769964,"TITULAR":"CUCULLU, ISIDRO","EDIFICADO":"SI","AñO_DOMINI":1865,"Nº_Mensura":33,"AGRIMENSOR":"FREMIOT","Parcela_12":368,"Coef_Divis":42066.0083262},"geometry":{"type":"Polygon","coordinates":[[[-59.506928,-34.379082],[-59.443502,-34.425047],[-59.446224,-34.427247],[-59.446865,-34.43026],[-59.448165,-34.433275],[-59.449145,-34.434921],[-59.45144,-34.437394],[-59.454296,-34.440095],[-59.521382,-34.392194],[-59.506928,-34.379082]]]}},{"type":"Feature","properties":{"AREA":8188175.043317,"PERIMETER":18896.88904619,"TITULAR":"DUARTE, JOSE GABRIEL","EDIFICADO":"SI","AñO_DOMINI":1862,"Nº_Mensura":32,"AGRIMENSOR":"GONNET","Parcela_12":41,"Coef_Divis":199711.586422},"geometry":{"type":"Polygon","coordinates":[[[-59.404698,-34.383275],[-59.402306,-34.381625],[-59.400006,-34.380246],[-59.400019,-34.378331],[-59.399206,-34.375966],[-59.330649,-34.429132],[-59.340594,-34.434157],[-59.404698,-34.383275]]]}},{"type":"Feature","properties":{"AREA":20745357.03009,"PERIMETER":31445.48515302,"TITULAR":"DEL SAR, PEDRO","EDIFICADO":"NO","AñO_DOMINI":1863,"Nº_Mensura":31,"AGRIMENSOR":"PICO","Parcela_12":38,"Coef_Divis":545930.44816},"geometry":{"type":"Polygon","coordinates":[[[-59.267861,-34.398805],[-59.253633,-34.391076],[-59.294929,-34.357798],[-59.284687,-34.348244],[-59.220651,-34.398933],[-59.222954,-34.399768],[-59.224932,-34.400055],[-59.227217,-34.402805],[-59.228844,-34.405277],[-59.23113,-34.408028],[-59.234736,-34.410786],[-59.238995,-34.414369],[-59.21828,-34.445004],[-59.225037,-34.448425],[-59.243883,-34.421787],[-59.248329,-34.427952],[-59.267861,-34.398805]]]}},{"type":"Feature","properties":{"AREA":31105251.32579,"PERIMETER":29608.76516101,"TITULAR":"MONSALVO,ANTONIO","EDIFICADO":"SI","AñO_DOMINI":1861,"Nº_Mensura":30,"AGRIMENSOR":"PICO","Parcela_12":87,"Coef_Divis":357531.624434},"geometry":{"type":"Polygon","coordinates":[[[-59.375016,-34.329313],[-59.370833,-34.326657],[-59.368675,-34.328041],[-59.364241,-34.325889],[-59.363253,-34.326797],[-59.346364,-34.31896],[-59.253633,-34.391076],[-59.279433,-34.403505],[-59.375016,-34.329313]]]}},{"type":"Feature","properties":{"AREA":44404043.94576,"PERIMETER":28709.3946042,"TITULAR":"GUERRICO, PLACIDO (HEREDEROS)","EDIFICADO":"SI","AñO_DOMINI":1861,"Nº_Mensura":29,"AGRIMENSOR":"EQUIA","Parcela_12":122,"Coef_Divis":363967.573326},"geometry":{"type":"Polygon","coordinates":[[[-59.543382,-34.351341],[-59.506848,-34.378835],[-59.540384,-34.409261],[-59.531862,-34.416106],[-59.562583,-34.443557],[-59.607698,-34.40814],[-59.543382,-34.351341]]]}},{"type":"Feature","properties":{"AREA":8174181.985466,"PERIMETER":16240.02415648,"TITULAR":"NORIEGA,MANUEL","EDIFICADO":"NO","AñO_DOMINI":1865,"Nº_Mensura":28,"AGRIMENSOR":"SAUBIDET","Parcela_12":59,"Coef_Divis":138545.457381},"geometry":{"type":"Polygon","coordinates":[[[-59.469898,-34.495134],[-59.458065,-34.490226],[-59.419583,-34.543535],[-59.430209,-34.54892],[-59.469898,-34.495134]]]}},{"type":"Feature","properties":{"AREA":12102167.51312,"PERIMETER":14418.0529377,"TITULAR":"O´BRIEN,JUAN","EDIFICADO":"SI","AñO_DOMINI":1860,"Nº_Mensura":27,"AGRIMENSOR":"PICO","Parcela_12":86,"Coef_Divis":140722.87806},"geometry":{"type":"Polygon","coordinates":[[[-59.275406,-34.30585],[-59.253866,-34.322169],[-59.288596,-34.35195],[-59.309037,-34.335256],[-59.275406,-34.30585]]]}},{"type":"Feature","properties":{"AREA":6522305.845069,"PERIMETER":17911.28495892,"TITULAR":"MARTINES, JUSTINA","EDIFICADO":"NO","AñO_DOMINI":1860,"Nº_Mensura":26,"AGRIMENSOR":"PICO","Parcela_12":8,"Coef_Divis":815288.230634},"geometry":{"type":"Polygon","coordinates":[[[-59.27823,-34.343132],[-59.214718,-34.39403],[-59.215886,-34.396714],[-59.217859,-34.397547],[-59.219582,-34.398584],[-59.220651,-34.398933],[-59.284687,-34.348244],[-59.27823,-34.343132]]]}},{"type":"Feature","properties":{"AREA":20574873.66965,"PERIMETER":19626.07139122,"TITULAR":"MOONNEY, GUILLERMO","EDIFICADO":"SI","AñO_DOMINI":1858,"Nº_Mensura":25,"AGRIMENSOR":"EQUIA","Parcela_12":32,"Coef_Divis":642964.802177},"geometry":{"type":"Polygon","coordinates":[[[-59.510536,-34.331704],[-59.491048,-34.322261],[-59.492803,-34.320131],[-59.48169,-34.314099],[-59.478907,-34.316071],[-59.468975,-34.311437],[-59.45246,-34.331155],[-59.450226,-34.330217],[-59.436981,-34.339177],[-59.444024,-34.344115],[-59.440143,-34.347545],[-59.462693,-34.366561],[-59.510536,-34.331704]]]}},{"type":"Feature","properties":{"AREA":135090424.958,"PERIMETER":55497.20160296,"TITULAR":"GUTIERREZ, BERNARDO","EDIFICADO":"SI","AñO_DOMINI":1859,"Nº_Mensura":24,"AGRIMENSOR":"SCHUSTER","Parcela_12":199,"Coef_Divis":678846.356573},"geometry":{"type":"Polygon","coordinates":[[[-59.768243,-34.453333],[-59.677956,-34.405024],[-59.677094,-34.4009],[-59.673298,-34.399254],[-59.646207,-34.418695],[-59.630692,-34.405066],[-59.62909,-34.407427],[-59.625775,-34.410426],[-59.625429,-34.413982],[-59.624753,-34.417537],[-59.623746,-34.421364],[-59.623612,-34.424752],[-59.607708,-34.436674],[-59.614489,-34.442771],[-59.593882,-34.458829],[-59.648715,-34.505333],[-59.665175,-34.491773],[-59.72443,-34.543664],[-59.767518,-34.509324],[-59.734132,-34.479411],[-59.768243,-34.453333]]]}},{"type":"Feature","properties":{"AREA":7806068.393668,"PERIMETER":20752.38666417,"TITULAR":"TORRES, LORENZO","EDIFICADO":"SI","AñO_DOMINI":1858,"Nº_Mensura":23,"AGRIMENSOR":"DIFFERT","Parcela_12":20,"Coef_Divis":390303.419683},"geometry":{"type":"Polygon","coordinates":[[[-59.398011,-34.37347],[-59.39846,-34.361726],[-59.32153,-34.423815],[-59.328355,-34.42789],[-59.398011,-34.37347]]]}},{"type":"Feature","properties":{"AREA":20902413.78146,"PERIMETER":18836.60941964,"TITULAR":"WHEELER, PATRICIO","EDIFICADO":"SI","AñO_DOMINI":1858,"Nº_Mensura":22,"AGRIMENSOR":"DIFFERT","Parcela_12":61,"Coef_Divis":342662.521008},"geometry":{"type":"Polygon","coordinates":[[[-59.461954,-34.366898],[-59.440143,-34.347545],[-59.443783,-34.344911],[-59.434601,-34.337171],[-59.398984,-34.365474],[-59.398962,-34.368484],[-59.398937,-34.37204],[-59.398913,-34.375323],[-59.400534,-34.379435],[-59.404472,-34.382464],[-59.406757,-34.386032],[-59.409368,-34.390148],[-59.413964,-34.393727],[-59.416573,-34.398117],[-59.418779,-34.398984],[-59.461954,-34.366898]]]}},{"type":"Feature","properties":{"AREA":21892528.13012,"PERIMETER":29899.64780581,"TITULAR":"ALENDE SOSA, DIONISIA","EDIFICADO":"SI","AñO_DOMINI":1858,"Nº_Mensura":21,"AGRIMENSOR":"DIFFERT","Parcela_12":49,"Coef_Divis":446786.28837},"geometry":{"type":"Polygon","coordinates":[[[-59.39233,-34.255863],[-59.323183,-34.30197],[-59.331789,-34.309777],[-59.3622,-34.287209],[-59.37229,-34.292984],[-59.349138,-34.320096],[-59.363696,-34.326552],[-59.412498,-34.268174],[-59.40791,-34.26894],[-59.404948,-34.268378],[-59.403314,-34.266455],[-59.402341,-34.264261],[-59.400048,-34.262335],[-59.397745,-34.261777],[-59.396768,-34.26013],[-59.394481,-34.257383],[-59.39233,-34.255863]]]}},{"type":"Feature","properties":{"AREA":17099014.99934,"PERIMETER":26625.49723581,"TITULAR":"MORGAN, EDUARDO","EDIFICADO":"SI","AñO_DOMINI":1856,"Nº_Mensura":20,"AGRIMENSOR":"KUHR","Parcela_12":33,"Coef_Divis":518151.969677},"geometry":{"type":"Polygon","coordinates":[[[-59.484012,-34.394835],[-59.543382,-34.351341],[-59.539235,-34.348863],[-59.574728,-34.321615],[-59.559564,-34.31533],[-59.492961,-34.365409],[-59.4999,-34.372495],[-59.477993,-34.389085],[-59.484012,-34.394835]]]}},{"type":"Feature","properties":{"AREA":130083890.8903,"PERIMETER":52188.55199643,"TITULAR":"ROCHA, ANTONIO","EDIFICADO":"SI","AñO_DOMINI":1839,"Nº_Mensura":19,"AGRIMENSOR":"EQUIA","Parcela_12":213,"Coef_Divis":610722.492443},"geometry":{"type":"Polygon","coordinates":[[[-59.767822,-34.509555],[-59.734132,-34.479411],[-59.76844,-34.45362],[-59.677956,-34.405024],[-59.677094,-34.4009],[-59.673298,-34.399254],[-59.646207,-34.418695],[-59.593882,-34.458829],[-59.648715,-34.505333],[-59.665175,-34.491773],[-59.72443,-34.543664],[-59.767822,-34.509555]]]}},{"type":"Feature","properties":{"AREA":5363296.738086,"PERIMETER":16958.02518149,"TITULAR":"SOSA, JOSE MARIA","EDIFICADO":"NO","AñO_DOMINI":1838,"Nº_Mensura":18,"AGRIMENSOR":"HIDALGO","Parcela_12":24,"Coef_Divis":223470.69742},"geometry":{"type":"Polygon","coordinates":[[[-59.346853,-34.318575],[-59.405535,-34.268193],[-59.404102,-34.266777],[-59.403394,-34.265238],[-59.401911,-34.263715],[-59.400508,-34.262744],[-59.342812,-34.313936],[-59.346853,-34.318575]]]}},{"type":"Feature","properties":{"AREA":16210488.25538,"PERIMETER":17907.73571736,"TITULAR":"PIVIDAL, RAFAEL","EDIFICADO":"SI","AñO_DOMINI":1854,"Nº_Mensura":17,"AGRIMENSOR":"EQUIA","Parcela_12":356,"Coef_Divis":45535.079369},"geometry":{"type":"Polygon","coordinates":[[[-59.449029,-34.433764],[-59.447317,-34.431335],[-59.446466,-34.429354],[-59.445151,-34.427603],[-59.443034,-34.425656],[-59.441279,-34.423603],[-59.440263,-34.421621],[-59.439453,-34.419708],[-59.438726,-34.417727],[-59.437558,-34.416307],[-59.436447,-34.414956],[-59.434768,-34.412799],[-59.379574,-34.454101],[-59.405758,-34.467476],[-59.417823,-34.458321],[-59.417145,-34.457671],[-59.449029,-34.433764]]]}},{"type":"Feature","properties":{"AREA":3253320.811402,"PERIMETER":11083.04258376,"TITULAR":"PIVIDAL, RAFAEL","EDIFICADO":"SI","AñO_DOMINI":1854,"Nº_Mensura":17,"AGRIMENSOR":"EQUIA","Parcela_12":1428,"Coef_Divis":2278.23586233},"geometry":{"type":"Polygon","coordinates":[[[-59.454362,-34.442652],[-59.414099,-34.473449],[-59.420791,-34.476863],[-59.457331,-34.44836],[-59.45683,-34.447324],[-59.456272,-34.446173],[-59.456181,-34.445203],[-59.455893,-34.444474],[-59.454824,-34.443823],[-59.454362,-34.442652]]]}},{"type":"Feature","properties":{"AREA":30940620.90652,"PERIMETER":22255.54458161,"TITULAR":"ECHEVERRIA, JOSE MARIA","EDIFICADO":"SI","AñO_DOMINI":1839,"Nº_Mensura":15,"AGRIMENSOR":"EQUIA","Parcela_12":61,"Coef_Divis":507223.29355},"geometry":{"type":"Polygon","coordinates":[[[-59.648715,-34.505333],[-59.606986,-34.469949],[-59.562802,-34.506628],[-59.605099,-34.540679],[-59.648715,-34.505333]]]}},{"type":"Feature","properties":{"AREA":139610604.2768,"PERIMETER":53785.66273938,"TITULAR":"QUIROGA, HIPOLITO","EDIFICADO":"NO","AñO_DOMINI":1827,"Nº_Mensura":13,"AGRIMENSOR":"LEMOINE","Parcela_12":203,"Coef_Divis":687736.966881},"geometry":{"type":"Polygon","coordinates":[[[-59.767822,-34.509555],[-59.734132,-34.479411],[-59.76844,-34.45362],[-59.677956,-34.405024],[-59.677353,-34.391272],[-59.593882,-34.458829],[-59.648715,-34.505333],[-59.657975,-34.497692],[-59.716493,-34.549898],[-59.767822,-34.509555]]]}},{"type":"Feature","properties":{"AREA":40716868.29137,"PERIMETER":32222.66139622,"TITULAR":"FERNANDEZ, CELEDONIO","EDIFICADO":"SI","AñO_DOMINI":1826,"Nº_Mensura":12,"AGRIMENSOR":"ISACH","Parcela_12":258,"Coef_Divis":157817.318959},"geometry":{"type":"Polygon","coordinates":[[[-59.64666,-34.418893],[-59.622022,-34.397555],[-59.553231,-34.450854],[-59.562802,-34.506628],[-59.606986,-34.469949],[-59.593882,-34.458829],[-59.64666,-34.418893]]]}},{"type":"Feature","properties":{"AREA":31252989.26334,"PERIMETER":25676.98396987,"TITULAR":"AGUIRRE, GUILLERMO","EDIFICADO":"SI","AñO_DOMINI":1826,"Nº_Mensura":11,"AGRIMENSOR":"ISACH","Parcela_12":108,"Coef_Divis":289379.530216},"geometry":{"type":"Polygon","coordinates":[[[-59.553231,-34.450854],[-59.497763,-34.490602],[-59.474653,-34.486646],[-59.491954,-34.504227],[-59.518182,-34.519042],[-59.564325,-34.513855],[-59.553231,-34.450854]]]}},{"type":"Feature","properties":{"AREA":13367138.35679,"PERIMETER":15417.47372188,"TITULAR":"CARRASCO DE FIGUEROA, ISABEL","EDIFICADO":"SI","AñO_DOMINI":1840,"Nº_Mensura":10,"AGRIMENSOR":"EQUIA","Parcela_12":33,"Coef_Divis":405064.798691},"geometry":{"type":"Polygon","coordinates":[[[-59.404195,-34.307187],[-59.38644,-34.329252],[-59.386926,-34.333331],[-59.388883,-34.335128],[-59.390099,-34.338767],[-59.39174,-34.34153],[-59.392053,-34.345103],[-59.39339,-34.347871],[-59.395564,-34.351342],[-59.396038,-34.35473],[-59.396336,-34.35686],[-59.440131,-34.325063],[-59.404195,-34.307187]]]}},{"type":"Feature","properties":{"AREA":8698038.58163,"PERIMETER":13704.80464137,"TITULAR":"MALDONADO, FRANCISCO","EDIFICADO":"SI","AñO_DOMINI":1856,"Nº_Mensura":9,"AGRIMENSOR":"SCHUSTER","Parcela_12":24,"Coef_Divis":362418.274235},"geometry":{"type":"Polygon","coordinates":[[[-59.32054,-34.370485],[-59.278607,-34.404136],[-59.294723,-34.412159],[-59.333287,-34.381922],[-59.32054,-34.370485]]]}},{"type":"Feature","properties":{"AREA":11621033.03954,"PERIMETER":15960.08548867,"TITULAR":"PIVIDAL, R Y GALEANO","EDIFICADO":"NO","AñO_DOMINI":1838,"Nº_Mensura":8,"AGRIMENSOR":"HIDALGO","Parcela_12":29,"Coef_Divis":400725.277226},"geometry":{"type":"Polygon","coordinates":[[[-59.343737,-34.390501],[-59.359302,-34.403819],[-59.398011,-34.37347],[-59.397497,-34.367596],[-59.398434,-34.361822],[-59.396336,-34.35686],[-59.395352,-34.350984],[-59.343737,-34.390501]]]}},{"type":"Feature","properties":{"AREA":11083595.57928,"PERIMETER":16757.5075003,"TITULAR":"LAMADRID DE CASTRO, LORENZA","EDIFICADO":"SI","AñO_DOMINI":1863,"Nº_Mensura":7,"AGRIMENSOR":"PICO","Parcela_12":1053,"Coef_Divis":10525.7317942},"geometry":{"type":"Polygon","coordinates":[[[-59.272109,-34.400912],[-59.235237,-34.453588],[-59.250342,-34.461231],[-59.287322,-34.409119],[-59.272109,-34.400912]]]}},{"type":"Feature","properties":{"AREA":14613591.85595,"PERIMETER":25238.10142345,"TITULAR":"RIESTRA, ALVARO DE LA","EDIFICADO":"SI","AñO_DOMINI":1854,"Nº_Mensura":6,"AGRIMENSOR":"EQUIA","Parcela_12":192,"Coef_Divis":76112.4575831},"geometry":{"type":"Polygon","coordinates":[[[-59.309356,-34.416789],[-59.395352,-34.350984],[-59.394123,-34.348701],[-59.392659,-34.346674],[-59.392053,-34.345103],[-59.391744,-34.342476],[-59.39174,-34.34153],[-59.390099,-34.338767],[-59.29716,-34.410243],[-59.300913,-34.412324],[-59.303173,-34.412725],[-59.309356,-34.416789]]]}},{"type":"Feature","properties":{"AREA":23297521.78278,"PERIMETER":22836.86986345,"TITULAR":"CASCO DE SARAVI, ANGELA","EDIFICADO":"SI","AñO_DOMINI":1856,"Nº_Mensura":5,"AGRIMENSOR":"EQUIA","Parcela_12":382,"Coef_Divis":60988.2769183},"geometry":{"type":"Polygon","coordinates":[[[-59.454296,-34.440095],[-59.454362,-34.442652],[-59.455893,-34.444474],[-59.456272,-34.446173],[-59.457331,-34.44836],[-59.458196,-34.450384],[-59.458374,-34.453052],[-59.459392,-34.454761],[-59.460112,-34.455969],[-59.461612,-34.459232],[-59.462421,-34.460989],[-59.465575,-34.463938],[-59.540638,-34.409942],[-59.521382,-34.392194],[-59.454296,-34.440095]]]}},{"type":"Feature","properties":{"AREA":3176735.59884,"PERIMETER":9440.018313706,"TITULAR":"RODRIGUEZ, JOAQUIN","EDIFICADO":"SI","AñO_DOMINI":1855,"Nº_Mensura":4,"AGRIMENSOR":"EQUIA","Parcela_12":15,"Coef_Divis":211782.373256},"geometry":{"type":"Polygon","coordinates":[[[-59.491392,-34.503592],[-59.48174,-34.492877],[-59.474653,-34.486646],[-59.469375,-34.47638],[-59.45395,-34.488174],[-59.469913,-34.495033],[-59.491392,-34.503592]]]}},{"type":"Feature","properties":{"AREA":31166011.75738,"PERIMETER":25681.09446929,"TITULAR":"ROMERO DE MONSALVO, PASCUALA","EDIFICADO":"SI","AñO_DOMINI":1838,"Nº_Mensura":3,"AGRIMENSOR":"EQUIA","Parcela_12":97,"Coef_Divis":321299.090282},"geometry":{"type":"Polygon","coordinates":[[[-59.553231,-34.450854],[-59.497763,-34.490602],[-59.474653,-34.486646],[-59.481497,-34.492615],[-59.491954,-34.504227],[-59.518182,-34.519042],[-59.564325,-34.513855],[-59.553231,-34.450854]]]}},{"type":"Feature","properties":{"AREA":6792964.242338,"PERIMETER":13847.14526207,"TITULAR":"MACONE, JORGE","EDIFICADO":"SI","AñO_DOMINI":1846,"Nº_Mensura":2,"AGRIMENSOR":"PRAT","Parcela_12":6,"Coef_Divis":1132160.70706},"geometry":{"type":"Polygon","coordinates":[[[-59.462693,-34.366561],[-59.510536,-34.331704],[-59.498921,-34.326077],[-59.453445,-34.358764],[-59.462693,-34.366561]]]}},{"type":"Feature","properties":{"AREA":57192802.40981,"PERIMETER":0.0,"TITULAR":"D. MARTINEZ Y J. MAIDANA","EDIFICADO":"SI","AñO_DOMINI":1829,"Nº_Mensura":190,"AGRIMENSOR":"PRAT","Parcela_12":0,"Coef_Divis":0},"geometry":{"type":"Polygon","coordinates":[[[-59.524723,-34.597436],[-59.570097,-34.563079],[-59.601747,-34.538378],[-59.562802,-34.506628],[-59.563303,-34.513709],[-59.518182,-34.519042],[-59.479196,-34.568436],[-59.506601,-34.581911],[-59.524723,-34.597436]]]}},{"type":"Feature","properties":{"AREA":15866819.93299,"PERIMETER":0.0,"TITULAR":"J. J. FIGUEROA Y ELINA FIGUEROA","EDIFICADO":"SI","AñO_DOMINI":1923,"Nº_Mensura":189,"AGRIMENSOR":"CAGNONI","Parcela_12":0,"Coef_Divis":0},"geometry":{"type":"Polygon","coordinates":[[[-59.437566,-34.326771],[-59.445075,-34.333702],[-59.450226,-34.330217],[-59.452708,-34.331674],[-59.46694,-34.314361],[-59.439036,-34.300257],[-59.432044,-34.308653],[-59.423404,-34.30409],[-59.427409,-34.297941],[-59.416299,-34.292544],[-59.404195,-34.307187],[-59.38644,-34.329252],[-59.386926,-34.333331],[-59.388883,-34.335128],[-59.389968,-34.338374],[-59.39174,-34.34153],[-59.419366,-34.31462],[-59.427046,-34.318382],[-59.440131,-34.325063],[-59.437566,-34.326771]]]}},{"type":"Feature","properties":{"AREA":8409785.555454,"PERIMETER":0.0,"TITULAR":"HEREDEROS T. GAYNOR, M LEAVY DE GAYNOR Y OTRO","EDIFICADO":"SI","AñO_DOMINI":1903,"Nº_Mensura":188,"AGRIMENSOR":"DOYLE","Parcela_12":0,"Coef_Divis":0},"geometry":{"type":"Polygon","coordinates":[[[-59.469195,-34.532901],[-59.452076,-34.523963],[-59.448736,-34.528037],[-59.446898,-34.524709],[-59.425895,-34.551275],[-59.446391,-34.562077],[-59.467894,-34.534674],[-59.469195,-34.532901]]]}},{"type":"Feature","properties":{"AREA":2108101.272278,"PERIMETER":0.0,"TITULAR":"M GAYNOR Y HERED. CRISTOBAL GAYNOR","EDIFICADO":"SI","AñO_DOMINI":1903,"Nº_Mensura":187,"AGRIMENSOR":"DOYLE","Parcela_12":0,"Coef_Divis":0},"geometry":{"type":"Polygon","coordinates":[[[-59.469913,-34.495033],[-59.464246,-34.492598],[-59.444072,-34.518558],[-59.449982,-34.5216],[-59.469913,-34.495033]]]}},{"type":"Feature","properties":{"AREA":8460521.920527,"PERIMETER":0.0,"TITULAR":"SUCESIÓN JOSÉ MONSALVO","EDIFICADO":"NO","AñO_DOMINI":1902,"Nº_Mensura":185,"AGRIMENSOR":"SABATHER","Parcela_12":0,"Coef_Divis":0},"geometry":{"type":"Polygon","coordinates":[[[-59.535667,-34.516977],[-59.554537,-34.514957],[-59.547367,-34.471581],[-59.52869,-34.473307],[-59.535667,-34.516977]]]}},{"type":"Feature","properties":{"AREA":4974809.707599,"PERIMETER":0.0,"TITULAR":"CATALINA W. DE CARRY","EDIFICADO":"NO","AñO_DOMINI":1900,"Nº_Mensura":184,"AGRIMENSOR":"CASTELLANOS","Parcela_12":0,"Coef_Divis":0},"geometry":{"type":"Polygon","coordinates":[[[-59.606986,-34.469949],[-59.585053,-34.488162],[-59.59843,-34.499415],[-59.620218,-34.481174],[-59.606986,-34.469949]]]}},{"type":"Feature","properties":{"AREA":15886131.93899,"PERIMETER":0.0,"TITULAR":"TESTAMNTARIA N. O´DONNELL Y E. MURTHAG","EDIFICADO":"SI","AñO_DOMINI":1899,"Nº_Mensura":183,"AGRIMENSOR":"WEIGEL","Parcela_12":45,"Coef_Divis":353025.1542},"geometry":{"type":"Polygon","coordinates":[[[-59.366492,-34.326981],[-59.370478,-34.329214],[-59.371892,-34.327733],[-59.374949,-34.328967],[-59.385204,-34.321445],[-59.38644,-34.329252],[-59.416299,-34.292544],[-59.424254,-34.296409],[-59.423168,-34.293599],[-59.424113,-34.288912],[-59.423826,-34.286385],[-59.423024,-34.282809],[-59.422574,-34.278693],[-59.419947,-34.275108],[-59.418746,-34.272829],[-59.417364,-34.271523],[-59.416982,-34.27015],[-59.414862,-34.268697],[-59.412217,-34.268221],[-59.406733,-34.268716],[-59.404372,-34.2677],[-59.403614,-34.265717],[-59.401456,-34.263518],[-59.399089,-34.262102],[-59.397237,-34.260921],[-59.396609,-34.259939],[-59.39392,-34.258166],[-59.394479,-34.262283],[-59.392033,-34.26635],[-59.3917,-34.268448],[-59.392107,-34.271761],[-59.392124,-34.27555],[-59.392235,-34.278221],[-59.392527,-34.28073],[-59.393242,-34.282087],[-59.393398,-34.285733],[-59.392157,-34.289011],[-59.390863,-34.293587],[-59.390541,-34.296111],[-59.366492,-34.326981]]]}},{"type":"Feature","properties":{"AREA":19624405.75422,"PERIMETER":0.0,"TITULAR":"HEREDEROS M. GUTIERREZ DE ALFONSIN","EDIFICADO":"SI","AñO_DOMINI":1899,"Nº_Mensura":181,"AGRIMENSOR":"MEINEKE","Parcela_12":0,"Coef_Divis":0},"geometry":{"type":"Polygon","coordinates":[[[-59.726458,-34.493916],[-59.687335,-34.459256],[-59.661627,-34.480545],[-59.670223,-34.487908],[-59.665175,-34.491773],[-59.695221,-34.517594],[-59.726458,-34.493916]]]}},{"type":"Feature","properties":{"AREA":4243502.890537,"PERIMETER":0.0,"TITULAR":"SUSANA CASCO DE SOSA","EDIFICADO":"NO","AñO_DOMINI":1899,"Nº_Mensura":180,"AGRIMENSOR":"GUEVARA","Parcela_12":0,"Coef_Divis":0},"geometry":{"type":"Polygon","coordinates":[[[-59.484012,-34.394846],[-59.477883,-34.388787],[-59.438922,-34.418262],[-59.439563,-34.419968],[-59.440135,-34.421317],[-59.440075,-34.422302],[-59.439742,-34.423039],[-59.440348,-34.423546],[-59.440719,-34.424033],[-59.440786,-34.424655],[-59.441649,-34.425125],[-59.441902,-34.425845],[-59.442628,-34.425302],[-59.484012,-34.394846]]]}},{"type":"Feature","properties":{"AREA":20509434.55836,"PERIMETER":0.0,"TITULAR":"MARIA MURRAY DE MOONEY","EDIFICADO":"SI","AñO_DOMINI":1898,"Nº_Mensura":179,"AGRIMENSOR":"KLAPPENBACH","Parcela_12":0,"Coef_Divis":0},"geometry":{"type":"Polygon","coordinates":[[[-59.510536,-34.331704],[-59.491048,-34.322261],[-59.492803,-34.320131],[-59.481241,-34.314428],[-59.478907,-34.316071],[-59.468975,-34.311437],[-59.452713,-34.331486],[-59.450226,-34.330217],[-59.436981,-34.339177],[-59.443783,-34.344911],[-59.440143,-34.347545],[-59.462693,-34.366561],[-59.510536,-34.331704]]]}},{"type":"Feature","properties":{"AREA":4317429.819586,"PERIMETER":0.0,"TITULAR":"GUILLERMO ACUÑA","EDIFICADO":"SI","AñO_DOMINI":1897,"Nº_Mensura":174,"AGRIMENSOR":"MEINEKE","Parcela_12":0,"Coef_Divis":0},"geometry":{"type":"Polygon","coordinates":[[[-59.48002,-34.560279],[-59.456459,-34.549154],[-59.447501,-34.562579],[-59.470388,-34.574249],[-59.48002,-34.560279]]]}},{"type":"Feature","properties":{"AREA":1637147.195204,"PERIMETER":0.0,"TITULAR":"PETRONA DIAZ DE GONZALEZ","EDIFICADO":"SI","AñO_DOMINI":1896,"Nº_Mensura":173,"AGRIMENSOR":"MEINEKE","Parcela_12":0,"Coef_Divis":0},"geometry":{"type":"Polygon","coordinates":[[[-59.362401,-34.445317],[-59.360293,-34.444239],[-59.319793,-34.497793],[-59.322015,-34.498921],[-59.362401,-34.445317]]]}},{"type":"Feature","properties":{"AREA":2150657.650549,"PERIMETER":0.0,"TITULAR":"JOSÉ MANUEL DOBARRO","EDIFICADO":"NO","AñO_DOMINI":1896,"Nº_Mensura":172,"AGRIMENSOR":"BOURDET","Parcela_12":0,"Coef_Divis":0},"geometry":{"type":"Polygon","coordinates":[[[-59.247777,-34.427404],[-59.243883,-34.421787],[-59.225037,-34.448425],[-59.231562,-34.451728],[-59.247777,-34.427404]]]}},{"type":"Feature","properties":{"AREA":669048.6707872,"PERIMETER":0.0,"TITULAR":"JOSÉ MANUEL DOBARRO","EDIFICADO":"NO","AñO_DOMINI":1896,"Nº_Mensura":172,"AGRIMENSOR":"BOURDET","Parcela_12":0,"Coef_Divis":0},"geometry":{"type":"Polygon","coordinates":[[[-59.25227,-34.433477],[-59.250977,-34.431111],[-59.235237,-34.453588],[-59.237497,-34.454732],[-59.25227,-34.433477]]]}},{"type":"Feature","properties":{"AREA":11873774.61994,"PERIMETER":0.0,"TITULAR":"PABLO BUSTOS","EDIFICADO":"SI","AñO_DOMINI":1896,"Nº_Mensura":171,"AGRIMENSOR":"SPOTTI","Parcela_12":0,"Coef_Divis":0},"geometry":{"type":"Polygon","coordinates":[[[-59.590483,-34.42166],[-59.557019,-34.447899],[-59.572518,-34.461347],[-59.56611,-34.46661],[-59.574735,-34.473762],[-59.597671,-34.455501],[-59.588696,-34.44764],[-59.605376,-34.434759],[-59.590483,-34.42166]]]}},{"type":"Feature","properties":{"AREA":11685903.418,"PERIMETER":0.0,"TITULAR":"MARÍA C. DE CAREY","EDIFICADO":"NO","AñO_DOMINI":1895,"Nº_Mensura":170,"AGRIMENSOR":"ARANGUREN","Parcela_12":0,"Coef_Divis":0},"geometry":{"type":"Polygon","coordinates":[[[-59.593882,-34.458829],[-59.574735,-34.473762],[-59.55439,-34.456887],[-59.562802,-34.506628],[-59.606986,-34.469949],[-59.593882,-34.458829]]]}},{"type":"Feature","properties":{"AREA":7298715.363617,"PERIMETER":0.0,"TITULAR":"BAUTISTA YRIBERRY Y MARIANA CAMADRO","EDIFICADO":"SI","AñO_DOMINI":1894,"Nº_Mensura":166,"AGRIMENSOR":"ORLANDINI","Parcela_12":0,"Coef_Divis":0},"geometry":{"type":"Polygon","coordinates":[[[-59.757674,-34.447844],[-59.73381,-34.435036],[-59.712977,-34.450239],[-59.730882,-34.467229],[-59.757674,-34.447844]]]}},{"type":"Feature","properties":{"AREA":8833289.610287,"PERIMETER":0.0,"TITULAR":"HERACLIO HILLNER Y AGUSTIN SINTAS","EDIFICADO":"SI","AñO_DOMINI":1893,"Nº_Mensura":165,"AGRIMENSOR":"CHAPEAUROUGE","Parcela_12":0,"Coef_Divis":0},"geometry":{"type":"Polygon","coordinates":[[[-59.293845,-34.412849],[-59.311275,-34.399145],[-59.333287,-34.381922],[-59.32054,-34.370485],[-59.298796,-34.387703],[-59.278607,-34.404136],[-59.293845,-34.412849]]]}},{"type":"Feature","properties":{"AREA":7730457.252253,"PERIMETER":0.0,"TITULAR":"FERNANDO DIAZ","EDIFICADO":"SI","AñO_DOMINI":1892,"Nº_Mensura":164,"AGRIMENSOR":"ARANGUREN","Parcela_12":0,"Coef_Divis":0},"geometry":{"type":"Polygon","coordinates":[[[-59.388272,-34.469986],[-59.372082,-34.461828],[-59.349335,-34.491667],[-59.369945,-34.502058],[-59.380623,-34.48795],[-59.376648,-34.485932],[-59.388272,-34.469986]]]}},{"type":"Feature","properties":{"AREA":412245.3974175,"PERIMETER":0.0,"TITULAR":"HIPOLITO MOREYRA Y FELICIANA ORMAECHEA","EDIFICADO":"NO","AñO_DOMINI":1892,"Nº_Mensura":163,"AGRIMENSOR":"KLAPPENBACH","Parcela_12":0,"Coef_Divis":0},"geometry":{"type":"Polygon","coordinates":[[[-59.293845,-34.412849],[-59.289953,-34.410624],[-59.286241,-34.415898],[-59.295621,-34.419843],[-59.296962,-34.417938],[-59.291889,-34.415853],[-59.293845,-34.412849]]]}},{"type":"Feature","properties":{"AREA":8742264.830512,"PERIMETER":0.0,"TITULAR":"DIONISIA ALEM DE SOSA","EDIFICADO":"SI","AñO_DOMINI":1891,"Nº_Mensura":162,"AGRIMENSOR":"SAUBERAN","Parcela_12":0,"Coef_Divis":0},"geometry":{"type":"Polygon","coordinates":[[[-59.39233,-34.255863],[-59.325496,-34.300241],[-59.336983,-34.305937],[-59.392572,-34.270032],[-59.391953,-34.266242],[-59.393068,-34.264339],[-59.394734,-34.26242],[-59.394437,-34.25987],[-59.394352,-34.258495],[-59.39233,-34.255863]]]}},{"type":"Feature","properties":{"AREA":10612855.31076,"PERIMETER":0.0,"TITULAR":"FELIPE FIGUEROA","EDIFICADO":"SI","AñO_DOMINI":1857,"Nº_Mensura":161,"AGRIMENSOR":"KUHR","Parcela_12":0,"Coef_Divis":0},"geometry":{"type":"Polygon","coordinates":[[[-59.466903,-34.314383],[-59.438901,-34.299956],[-59.432056,-34.308618],[-59.423087,-34.304046],[-59.427703,-34.297823],[-59.415803,-34.292601],[-59.404195,-34.307187],[-59.452713,-34.331486],[-59.466903,-34.314383]]]}},{"type":"Feature","properties":{"AREA":6774947.20569,"PERIMETER":0.0,"TITULAR":"SUCESIÓN JUAN ORMAECHEA Y VICTORIA REYES","EDIFICADO":"NO","AñO_DOMINI":1891,"Nº_Mensura":160,"AGRIMENSOR":"KLAPPENBACH","Parcela_12":0,"Coef_Divis":0},"geometry":{"type":"Polygon","coordinates":[[[-59.300913,-34.412324],[-59.29716,-34.410243],[-59.293845,-34.412849],[-59.289953,-34.410624],[-59.253004,-34.462578],[-59.261656,-34.468065],[-59.300913,-34.412324]]]}},{"type":"Feature","properties":{"AREA":17339390.91654,"PERIMETER":0.0,"TITULAR":"TESTAMENTARIA MERCEDES DE LA TORRE DE BUTTERFILL","EDIFICADO":"SI","AñO_DOMINI":1891,"Nº_Mensura":159,"AGRIMENSOR":"ORLANDINI","Parcela_12":0,"Coef_Divis":0},"geometry":{"type":"Polygon","coordinates":[[[-59.553231,-34.450854],[-59.547068,-34.45566],[-59.535445,-34.445147],[-59.508541,-34.463899],[-59.504915,-34.460975],[-59.473229,-34.483652],[-59.474653,-34.486646],[-59.481497,-34.492615],[-59.485577,-34.497017],[-59.497763,-34.490602],[-59.519542,-34.474886],[-59.525107,-34.480597],[-59.529765,-34.480267],[-59.528673,-34.473403],[-59.556737,-34.47077],[-59.553231,-34.450854]]]}},{"type":"Feature","properties":{"AREA":1375242.969918,"PERIMETER":0.0,"TITULAR":"LUIS VERNET","EDIFICADO":"SI","AñO_DOMINI":1891,"Nº_Mensura":158,"AGRIMENSOR":"MONTEVERDE","Parcela_12":0,"Coef_Divis":0},"geometry":{"type":"Polygon","coordinates":[[[-59.42972,-34.548609],[-59.407097,-34.537257],[-59.403663,-34.541612],[-59.410655,-34.545655],[-59.427156,-34.552207],[-59.42972,-34.548609]]]}},{"type":"Feature","properties":{"AREA":2217336.722647,"PERIMETER":0.0,"TITULAR":"DIONISIO ACUÑA","EDIFICADO":"SI","AñO_DOMINI":1890,"Nº_Mensura":157,"AGRIMENSOR":"ARANGUREN","Parcela_12":0,"Coef_Divis":0},"geometry":{"type":"Polygon","coordinates":[[[-59.382904,-34.49242],[-59.362504,-34.519459],[-59.368479,-34.522488],[-59.388557,-34.495331],[-59.382904,-34.49242]]]}},{"type":"Feature","properties":{"AREA":4280871.700229,"PERIMETER":0.0,"TITULAR":"OOSTENDORP Y CIA.","EDIFICADO":"NO","AñO_DOMINI":1890,"Nº_Mensura":156,"AGRIMENSOR":"MUÑIZ","Parcela_12":0,"Coef_Divis":0},"geometry":{"type":"Polygon","coordinates":[[[-59.65855,-34.477908],[-59.63692,-34.495335],[-59.648715,-34.505333],[-59.670223,-34.487908],[-59.65855,-34.477908]]]}},{"type":"Feature","properties":{"AREA":3295447.344778,"PERIMETER":0.0,"TITULAR":"SILVIO SOSA","EDIFICADO":"NO","AñO_DOMINI":1890,"Nº_Mensura":155,"AGRIMENSOR":"VARANGOT","Parcela_12":0,"Coef_Divis":0},"geometry":{"type":"Polygon","coordinates":[[[-59.392098,-34.2688],[-59.361243,-34.28696],[-59.37229,-34.292984],[-59.393964,-34.279473],[-59.393511,-34.277007],[-59.393304,-34.275118],[-59.392997,-34.273188],[-59.392814,-34.27148],[-59.392572,-34.270032],[-59.392098,-34.2688]]]}},{"type":"Feature","properties":{"AREA":4384207.3441,"PERIMETER":0.0,"TITULAR":"TESTAMENTARIA MAURICIO DUARTE DE RODRIGUEZ","EDIFICADO":"NO","AñO_DOMINI":1890,"Nº_Mensura":154,"AGRIMENSOR":"ORLANDINI","Parcela_12":0,"Coef_Divis":0},"geometry":{"type":"Polygon","coordinates":[[[-59.372745,-34.407536],[-59.36624,-34.40188],[-59.339739,-34.422694],[-59.337351,-34.420895],[-59.328355,-34.42789],[-59.340594,-34.434157],[-59.363216,-34.416486],[-59.362245,-34.415436],[-59.372745,-34.407536]]]}},{"type":"Feature","properties":{"AREA":5335730.894948,"PERIMETER":0.0,"TITULAR":"HEREDEROS PATRICIO KELLY","EDIFICADO":"SI","AñO_DOMINI":1889,"Nº_Mensura":153,"AGRIMENSOR":"ARANGUREN","Parcela_12":0,"Coef_Divis":0},"geometry":{"type":"Polygon","coordinates":[[[-59.562802,-34.506628],[-59.564325,-34.513855],[-59.5316,-34.517478],[-59.561566,-34.533526],[-59.579429,-34.520018],[-59.562802,-34.506628]]]}},{"type":"Feature","properties":{"AREA":9345958.278598,"PERIMETER":0.0,"TITULAR":"PETRONA GUTIERREZ DE MOLINA","EDIFICADO":"NO","AñO_DOMINI":1889,"Nº_Mensura":152,"AGRIMENSOR":"MUÑIZ","Parcela_12":0,"Coef_Divis":0},"geometry":{"type":"Polygon","coordinates":[[[-59.73381,-34.435036],[-59.71925,-34.427217],[-59.704116,-34.438405],[-59.713219,-34.446983],[-59.691478,-34.46261],[-59.71011,-34.479356],[-59.722856,-34.469802],[-59.724907,-34.47155],[-59.730882,-34.467229],[-59.712977,-34.450239],[-59.73381,-34.435036]]]}},{"type":"Feature","properties":{"AREA":48202413.64919,"PERIMETER":0.0,"TITULAR":"EDUARDO Y MARÍA TORMEY","EDIFICADO":"SI","AñO_DOMINI":1885,"Nº_Mensura":151,"AGRIMENSOR":"GLADE","Parcela_12":0,"Coef_Divis":0},"geometry":{"type":"Polygon","coordinates":[[[-59.256608,-34.324249],[-59.19366,-34.371081],[-59.1978,-34.374224],[-59.201369,-34.379418],[-59.20589,-34.384666],[-59.207631,-34.387923],[-59.208944,-34.389654],[-59.211932,-34.389948],[-59.214718,-34.39403],[-59.218025,-34.397642],[-59.220569,-34.399446],[-59.22541,-34.400594],[-59.228007,-34.403792],[-59.230937,-34.407266],[-59.235488,-34.410988],[-59.236641,-34.409298],[-59.241018,-34.411588],[-59.239634,-34.413716],[-59.241639,-34.418379],[-59.243846,-34.421625],[-59.247777,-34.427404],[-59.267861,-34.398805],[-59.263885,-34.396832],[-59.253633,-34.391076],[-59.293136,-34.359604],[-59.286198,-34.353874],[-59.288596,-34.35195],[-59.263787,-34.329692],[-59.256608,-34.324249]]]}},{"type":"Feature","properties":{"AREA":27531824.402,"PERIMETER":0.0,"TITULAR":"GERONIMA SOSA DE LACARRA","EDIFICADO":"SI","AñO_DOMINI":1888,"Nº_Mensura":150,"AGRIMENSOR":"MEINEKE","Parcela_12":471,"Coef_Divis":58453.9796221},"geometry":{"type":"Polygon","coordinates":[[[-59.375867,-34.239237],[-59.300916,-34.264897],[-59.30843,-34.285567],[-59.323785,-34.301301],[-59.392377,-34.255834],[-59.390355,-34.252588],[-59.386336,-34.24921],[-59.383841,-34.247293],[-59.380774,-34.244723],[-59.377833,-34.244645],[-59.37557,-34.240824],[-59.375867,-34.239237]]]}},{"type":"Feature","properties":{"AREA":2194409.800851,"PERIMETER":0.0,"TITULAR":"MARCELINA MONSALVO","EDIFICADO":"NO","AñO_DOMINI":1887,"Nº_Mensura":149,"AGRIMENSOR":"DILLON","Parcela_12":0,"Coef_Divis":0},"geometry":{"type":"Polygon","coordinates":[[[-59.301593,-34.385426],[-59.290265,-34.375637],[-59.278753,-34.384888],[-59.290478,-34.394475],[-59.300205,-34.386556],[-59.301593,-34.385426]]]}},{"type":"Feature","properties":{"AREA":2555945.434445,"PERIMETER":0.0,"TITULAR":"FORTUNATA PORCEL DE PONCE Y HIJOS GAYETANO Y GUAD.","EDIFICADO":"SI","AñO_DOMINI":1886,"Nº_Mensura":148,"AGRIMENSOR":"PALACIOS","Parcela_12":0,"Coef_Divis":0},"geometry":{"type":"Polygon","coordinates":[[[-59.462693,-34.366561],[-59.46027,-34.364518],[-59.447591,-34.373918],[-59.444143,-34.371172],[-59.428635,-34.383032],[-59.431399,-34.385584],[-59.415967,-34.397457],[-59.416481,-34.398155],[-59.417382,-34.398841],[-59.418841,-34.399037],[-59.448446,-34.377011],[-59.462693,-34.366561]]]}},{"type":"Feature","properties":{"AREA":2330521.701384,"PERIMETER":0.0,"TITULAR":"MELITON Y TORIBIO RODRIGUEZ","EDIFICADO":"SI","AñO_DOMINI":1886,"Nº_Mensura":147,"AGRIMENSOR":"ORLANDINI","Parcela_12":0,"Coef_Divis":0},"geometry":{"type":"Polygon","coordinates":[[[-59.398011,-34.37347],[-59.337351,-34.420895],[-59.339739,-34.422694],[-59.399133,-34.376548],[-59.398011,-34.37347]]]}},{"type":"Feature","properties":{"AREA":4730831.344087,"PERIMETER":0.0,"TITULAR":"BERNARDINO RODRIGUEZ","EDIFICADO":"SI","AñO_DOMINI":1886,"Nº_Mensura":146,"AGRIMENSOR":"ORLANDINI","Parcela_12":0,"Coef_Divis":0},"geometry":{"type":"Polygon","coordinates":[[[-59.339739,-34.422694],[-59.330481,-34.428979],[-59.340594,-34.434157],[-59.363216,-34.416486],[-59.362245,-34.415436],[-59.378632,-34.403106],[-59.37191,-34.397424],[-59.339739,-34.422694]]]}},{"type":"Feature","properties":{"AREA":5551160.596802,"PERIMETER":0.0,"TITULAR":"FERNANDO PELÁEZ","EDIFICADO":"SI","AñO_DOMINI":1886,"Nº_Mensura":144,"AGRIMENSOR":"ORLANDINI","Parcela_12":0,"Coef_Divis":0},"geometry":{"type":"Polygon","coordinates":[[[-59.375868,-34.42018],[-59.383996,-34.42677],[-59.408586,-34.408271],[-59.417632,-34.416073],[-59.430737,-34.406644],[-59.429172,-34.404925],[-59.428007,-34.402949],[-59.426001,-34.401473],[-59.423334,-34.400472],[-59.420786,-34.400153],[-59.419188,-34.399327],[-59.417382,-34.398841],[-59.407562,-34.406003],[-59.401959,-34.400824],[-59.375868,-34.42018]]]}},{"type":"Feature","properties":{"AREA":1416989.399957,"PERIMETER":0.0,"TITULAR":"MARCELINO J. ORTIZ","EDIFICADO":"NO","AñO_DOMINI":1886,"Nº_Mensura":143,"AGRIMENSOR":"ALMEIRA","Parcela_12":0,"Coef_Divis":0},"geometry":{"type":"Polygon","coordinates":[[[-59.278767,-34.384877],[-59.276762,-34.386488],[-59.28851,-34.396077],[-59.290478,-34.394475],[-59.278767,-34.384877]],[[-59.277638,-34.371956],[-59.270109,-34.377954],[-59.278767,-34.384877],[-59.285846,-34.379188],[-59.277638,-34.371956]]]}},{"type":"Feature","properties":{"AREA":2868917.371386,"PERIMETER":0.0,"TITULAR":"BENJAMIN A SILVA","EDIFICADO":"SI","AñO_DOMINI":1885,"Nº_Mensura":142,"AGRIMENSOR":"PALACIOS","Parcela_12":0,"Coef_Divis":0},"geometry":{"type":"Polygon","coordinates":[[[-59.299087,-34.449676],[-59.278885,-34.477017],[-59.286554,-34.480913],[-59.306286,-34.453635],[-59.299087,-34.449676]]]}},{"type":"Feature","properties":{"AREA":8483319.58845,"PERIMETER":0.0,"TITULAR":"TOMÁS GAYNOR","EDIFICADO":"SI","AñO_DOMINI":1885,"Nº_Mensura":141,"AGRIMENSOR":"CASTRO","Parcela_12":30,"Coef_Divis":282777.319615},"geometry":{"type":"Polygon","coordinates":[[[-59.469283,-34.532928],[-59.452101,-34.523834],[-59.448708,-34.528154],[-59.446897,-34.52456],[-59.426426,-34.551838],[-59.447145,-34.562397],[-59.469283,-34.532928]]]}},{"type":"Feature","properties":{"AREA":3330389.389442,"PERIMETER":0.0,"TITULAR":"TOMÁS GAYNOR","EDIFICADO":"SI","AñO_DOMINI":1885,"Nº_Mensura":140,"AGRIMENSOR":"CASTRO","Parcela_12":0,"Coef_Divis":0},"geometry":{"type":"Polygon","coordinates":[[[-59.701444,-34.561715],[-59.681225,-34.543407],[-59.671453,-34.5511],[-59.692082,-34.569063],[-59.697472,-34.564832],[-59.701444,-34.561715]]]}},{"type":"Feature","properties":{"AREA":1007606.080654,"PERIMETER":0.0,"TITULAR":"DENUNCIADO SOBRANTE POR JUAN ABADIE","EDIFICADO":"SI","AñO_DOMINI":1885,"Nº_Mensura":139,"AGRIMENSOR":"CASTRO","Parcela_12":0,"Coef_Divis":0},"geometry":{"type":"Polygon","coordinates":[[[-59.429537,-34.548516],[-59.410919,-34.539172],[-59.407449,-34.543613],[-59.42749,-34.551809],[-59.429537,-34.548516]]]}},{"type":"Feature","properties":{"AREA":3119537.935603,"PERIMETER":0.0,"TITULAR":"PEDRO B NINET","EDIFICADO":"NO","AñO_DOMINI":1884,"Nº_Mensura":138,"AGRIMENSOR":"ORLANDINI","Parcela_12":0,"Coef_Divis":0},"geometry":{"type":"Polygon","coordinates":[[[-59.40764,-34.470154],[-59.401943,-34.467246],[-59.390023,-34.48301],[-59.38588,-34.481004],[-59.369945,-34.502058],[-59.374047,-34.504125],[-59.384011,-34.490957],[-59.389688,-34.493839],[-59.40764,-34.470154]]]}},{"type":"Feature","properties":{"AREA":1130872.148599,"PERIMETER":0.0,"TITULAR":"PEDRO B NINET","EDIFICADO":"NO","AñO_DOMINI":1884,"Nº_Mensura":138,"AGRIMENSOR":"ORLANDINI","Parcela_12":0,"Coef_Divis":0},"geometry":{"type":"Polygon","coordinates":[[[-59.34682,-34.494964],[-59.340085,-34.491487],[-59.331452,-34.50371],[-59.33808,-34.507073],[-59.34682,-34.494964]]]}},{"type":"Feature","properties":{"AREA":1863842.468991,"PERIMETER":0.0,"TITULAR":"PEDRO B NINET","EDIFICADO":"NO","AñO_DOMINI":1884,"Nº_Mensura":138,"AGRIMENSOR":"ORLANDINI","Parcela_12":0,"Coef_Divis":0},"geometry":{"type":"Polygon","coordinates":[[[-59.378419,-34.45351],[-59.370827,-34.449628],[-59.357705,-34.467501],[-59.364848,-34.47132],[-59.378419,-34.45351]]]}},{"type":"Feature","properties":{"AREA":1556600.523182,"PERIMETER":0.0,"TITULAR":"MANUEL BELGRANO","EDIFICADO":"NO","AñO_DOMINI":1884,"Nº_Mensura":136,"AGRIMENSOR":"VIDELA","Parcela_12":0,"Coef_Divis":0},"geometry":{"type":"Polygon","coordinates":[[[-59.652746,-34.599916],[-59.646777,-34.595171],[-59.628372,-34.610714],[-59.628308,-34.611078],[-59.633506,-34.610939],[-59.633472,-34.611638],[-59.637978,-34.61149],[-59.652746,-34.599916]]]}},{"type":"Feature","properties":{"AREA":8931115.130501,"PERIMETER":0.0,"TITULAR":"EUGENIA R. Y JUAN O´BRIEN","EDIFICADO":"SI","AñO_DOMINI":1884,"Nº_Mensura":135,"AGRIMENSOR":"IPARRAGUIRRE","Parcela_12":0,"Coef_Divis":0},"geometry":{"type":"Polygon","coordinates":[[[-59.288596,-34.35195],[-59.309534,-34.335642],[-59.284043,-34.313136],[-59.263787,-34.329692],[-59.280354,-34.344602],[-59.288596,-34.35195]]]}},{"type":"Feature","properties":{"AREA":20942434.9573,"PERIMETER":0.0,"TITULAR":"JOSE MARIA ECHEVERRIA","EDIFICADO":"SI","AñO_DOMINI":1862,"Nº_Mensura":134,"AGRIMENSOR":"SAUBIDET","Parcela_12":0,"Coef_Divis":0},"geometry":{"type":"Polygon","coordinates":[[[-59.620386,-34.481316],[-59.576316,-34.517512],[-59.605099,-34.540679],[-59.648715,-34.505333],[-59.620386,-34.481316]]]}},{"type":"Feature","properties":{"AREA":33435344.91969,"PERIMETER":0.0,"TITULAR":"BRIGIDA KEARNEY DE SCULLY","EDIFICADO":"SI","AñO_DOMINI":1883,"Nº_Mensura":133,"AGRIMENSOR":"IPARRAGUIRRE","Parcela_12":0,"Coef_Divis":0},"geometry":{"type":"Polygon","coordinates":[[[-59.393964,-34.279473],[-59.37229,-34.292984],[-59.362422,-34.287603],[-59.331789,-34.309777],[-59.323785,-34.301301],[-59.324576,-34.300811],[-59.312616,-34.289644],[-59.279023,-34.309059],[-59.295031,-34.323352],[-59.309534,-34.335642],[-59.286198,-34.353874],[-59.293136,-34.359604],[-59.328765,-34.332856],[-59.340827,-34.323196],[-59.345116,-34.326663],[-59.351715,-34.321395],[-59.363253,-34.326797],[-59.389761,-34.295468],[-59.39008,-34.292973],[-59.390465,-34.289962],[-59.391959,-34.286395],[-59.39326,-34.283313],[-59.393964,-34.279473]]]}},{"type":"Feature","properties":{"AREA":1705201.313557,"PERIMETER":0.0,"TITULAR":"ANTONIO TORTORELLA","EDIFICADO":"NO","AñO_DOMINI":1883,"Nº_Mensura":132,"AGRIMENSOR":"ALMEIRA","Parcela_12":0,"Coef_Divis":0},"geometry":{"type":"Polygon","coordinates":[[[-59.365198,-34.336739],[-59.355308,-34.328595],[-59.344922,-34.336318],[-59.354207,-34.345048],[-59.365198,-34.336739]]]}},{"type":"Feature","properties":{"AREA":773954.3896729,"PERIMETER":0.0,"TITULAR":"JOSÉ V APAOLAZA","EDIFICADO":"NO","AñO_DOMINI":1883,"Nº_Mensura":131,"AGRIMENSOR":"ALMEIRA","Parcela_12":0,"Coef_Divis":0},"geometry":{"type":"Polygon","coordinates":[[[-59.412498,-34.268174],[-59.408351,-34.267536],[-59.405357,-34.267521],[-59.39824,-34.278257],[-59.402082,-34.280333],[-59.412498,-34.268174]]]}},{"type":"Feature","properties":{"AREA":3039844.870667,"PERIMETER":0.0,"TITULAR":"MANUEL LIMA","EDIFICADO":"SI","AñO_DOMINI":1883,"Nº_Mensura":130,"AGRIMENSOR":"CASTELLANOS","Parcela_12":0,"Coef_Divis":0},"geometry":{"type":"Polygon","coordinates":[[[-59.639203,-34.539293],[-59.633043,-34.534023],[-59.604458,-34.557927],[-59.610338,-34.563385],[-59.639203,-34.539293]]]}},{"type":"Feature","properties":{"AREA":1899336.042112,"PERIMETER":0.0,"TITULAR":"CELEDONIO LIMA","EDIFICADO":"SI","AñO_DOMINI":1883,"Nº_Mensura":129,"AGRIMENSOR":"CASTELLANOS","Parcela_12":0,"Coef_Divis":0},"geometry":{"type":"Polygon","coordinates":[[[-59.648751,-34.531319],[-59.629663,-34.547258],[-59.635377,-34.55202],[-59.654655,-34.536464],[-59.648751,-34.531319]]]}},{"type":"Feature","properties":{"AREA":3591309.839022,"PERIMETER":0.0,"TITULAR":"PETRONA, FELIPA, REMIGIO, CIPRIANO Y PEDRO CASADO","EDIFICADO":"SI","AñO_DOMINI":1883,"Nº_Mensura":128,"AGRIMENSOR":"SCHUSTER","Parcela_12":0,"Coef_Divis":0},"geometry":{"type":"Polygon","coordinates":[[[-59.693474,-34.516567],[-59.665175,-34.491773],[-59.657975,-34.497692],[-59.686004,-34.522709],[-59.693474,-34.516567]]]}},{"type":"Feature","properties":{"AREA":3016208.085924,"PERIMETER":0.0,"TITULAR":"JOSEFA COTS DE LA SOTA","EDIFICADO":"SI","AñO_DOMINI":1882,"Nº_Mensura":126,"AGRIMENSOR":"IPARRAGUIRRE","Parcela_12":0,"Coef_Divis":0},"geometry":{"type":"Polygon","coordinates":[[[-59.412498,-34.268174],[-59.406887,-34.268672],[-59.404253,-34.267105],[-59.403597,-34.26568],[-59.401911,-34.263715],[-59.39961,-34.262346],[-59.398111,-34.261562],[-59.39705,-34.260341],[-59.396112,-34.259457],[-59.394139,-34.258613],[-59.394734,-34.26242],[-59.391953,-34.266242],[-59.392145,-34.268771],[-59.393027,-34.273411],[-59.393964,-34.279473],[-59.39409,-34.280372],[-59.392943,-34.284065],[-59.391959,-34.286395],[-59.390465,-34.289962],[-59.389945,-34.29403],[-59.412498,-34.268174]]]}},{"type":"Feature","properties":{"AREA":7512833.109915,"PERIMETER":0.0,"TITULAR":"","EDIFICADO":"","AñO_DOMINI":0,"Nº_Mensura":0,"AGRIMENSOR":"","Parcela_12":0,"Coef_Divis":0},"geometry":{"type":"Polygon","coordinates":[[[-59.648751,-34.531319],[-59.633251,-34.517805],[-59.593489,-34.550154],[-59.59799,-34.553939],[-59.59875,-34.553311],[-59.604458,-34.557927],[-59.633043,-34.534023],[-59.639203,-34.539293],[-59.648751,-34.531319]]]}},{"type":"Feature","properties":{"AREA":0.0,"PERIMETER":0.0,"TITULAR":"PETRONA LIMA DE MARTINEZ","EDIFICADO":"SI","AñO_DOMINI":1882,"Nº_Mensura":125,"AGRIMENSOR":"CARLOS SCHUSTER","Parcela_12":0,"Coef_Divis":0},"geometry":{"type":"Polygon","coordinates":[]}},{"type":"Feature","properties":{"AREA":27589764.36799,"PERIMETER":0.0,"TITULAR":"VICTORINA GUTIERREZ","EDIFICADO":"SI","AñO_DOMINI":1899,"Nº_Mensura":123,"AGRIMENSOR":"CARLOS SCHUSTER","Parcela_12":0,"Coef_Divis":0},"geometry":{"type":"Polygon","coordinates":[[[-59.73381,-34.435036],[-59.677956,-34.405024],[-59.677094,-34.4009],[-59.673298,-34.399254],[-59.644606,-34.420439],[-59.694427,-34.465261],[-59.73381,-34.435036]]]}},{"type":"Feature","properties":{"AREA":8144585.189977,"PERIMETER":0.0,"TITULAR":"","EDIFICADO":"","AñO_DOMINI":0,"Nº_Mensura":0,"AGRIMENSOR":"","Parcela_12":0,"Coef_Divis":0},"geometry":{"type":"Polygon","coordinates":[[[-59.36372,-34.375209],[-59.309356,-34.416789],[-59.320783,-34.423839],[-59.372242,-34.382757],[-59.36372,-34.375209]]]}},{"type":"Feature","properties":{"AREA":0.0,"PERIMETER":0.0,"TITULAR":"LORENZO MANUEL TORRES","EDIFICADO":"SI","AñO_DOMINI":1882,"Nº_Mensura":122,"AGRIMENSOR":"JOSE MUÑIZ","Parcela_12":0,"Coef_Divis":0},"geometry":{"type":"Polygon","coordinates":[]}},{"type":"Feature","properties":{"AREA":1941503.488276,"PERIMETER":0.0,"TITULAR":"MELITON RODRIGUEZ","EDIFICADO":"SI","AñO_DOMINI":1882,"Nº_Mensura":121,"AGRIMENSOR":"FEDERICO MEYRELLES","Parcela_12":0,"Coef_Divis":0},"geometry":{"type":"Polygon","coordinates":[[[-59.287322,-34.409119],[-59.250342,-34.461231],[-59.253004,-34.462578],[-59.289953,-34.410624],[-59.287322,-34.409119]]]}},{"type":"Feature","properties":{"AREA":1025989.311956,"PERIMETER":0.0,"TITULAR":"TORIBIO GONZALEZ","EDIFICADO":"NO","AñO_DOMINI":1882,"Nº_Mensura":120,"AGRIMENSOR":"FELIX DABADIE","Parcela_12":0,"Coef_Divis":0},"geometry":{"type":"Polygon","coordinates":[[[-59.414099,-34.473449],[-59.409075,-34.470886],[-59.398185,-34.48485],[-59.403554,-34.487495],[-59.414099,-34.473449]]]}},{"type":"Feature","properties":{"AREA":30851827.13971,"PERIMETER":0.0,"TITULAR":"ANTONIO MONSALVO Y ANTONIO  ZARATE","EDIFICADO":"SI","AñO_DOMINI":1882,"Nº_Mensura":119,"AGRIMENSOR":"MANUEL ALMEIRA","Parcela_12":0,"Coef_Divis":0},"geometry":{"type":"Polygon","coordinates":[[[-59.375016,-34.329313],[-59.370833,-34.326657],[-59.368675,-34.328041],[-59.364241,-34.325889],[-59.363253,-34.326797],[-59.347809,-34.319671],[-59.346705,-34.318405],[-59.253633,-34.391076],[-59.278607,-34.404136],[-59.323886,-34.367958],[-59.356787,-34.343098],[-59.375016,-34.329313]]]}},{"type":"Feature","properties":{"AREA":5954865.450059,"PERIMETER":0.0,"TITULAR":"JOSE BIANCHI","EDIFICADO":"SI","AñO_DOMINI":0,"Nº_Mensura":118,"AGRIMENSOR":"VENTURA COLL","Parcela_12":0,"Coef_Divis":0},"geometry":{"type":"Polygon","coordinates":[[[-59.561566,-34.533526],[-59.5316,-34.517478],[-59.518182,-34.519042],[-59.513616,-34.524602],[-59.548288,-34.543563],[-59.561566,-34.533526]]]}},{"type":"Feature","properties":{"AREA":11817632.05227,"PERIMETER":0.0,"TITULAR":"JOSÉ MARÍA RODRIGUEZ","EDIFICADO":"SI","AñO_DOMINI":1881,"Nº_Mensura":117,"AGRIMENSOR":"CARLOS SCHUSTER","Parcela_12":0,"Coef_Divis":0},"geometry":{"type":"Polygon","coordinates":[[[-59.664475,-34.545021],[-59.654655,-34.536464],[-59.635377,-34.55202],[-59.629663,-34.547258],[-59.605281,-34.567604],[-59.612529,-34.573788],[-59.598037,-34.585793],[-59.606154,-34.592726],[-59.664475,-34.545021]]]}},{"type":"Feature","properties":{"AREA":5366483.531163,"PERIMETER":0.0,"TITULAR":"EMILIA LOPEZ DE CUCULLU","EDIFICADO":"SI","AñO_DOMINI":1881,"Nº_Mensura":116,"AGRIMENSOR":"CARLOS SCHUSTER","Parcela_12":469,"Coef_Divis":11442},"geometry":{"type":"Polygon","coordinates":[[[-59.457331,-34.44836],[-59.420791,-34.476863],[-59.433008,-34.483094],[-59.462421,-34.460989],[-59.460112,-34.455969],[-59.458982,-34.454072],[-59.458374,-34.453052],[-59.458196,-34.450384],[-59.457331,-34.44836]]]}},{"type":"Feature","properties":{"AREA":9235123.747774,"PERIMETER":0.0,"TITULAR":"ROMUALDA GALEANO DE CASAS","EDIFICADO":"NO","AñO_DOMINI":1881,"Nº_Mensura":115,"AGRIMENSOR":"AGUSTIN RODRIGUEZ","Parcela_12":0,"Coef_Divis":0},"geometry":{"type":"Polygon","coordinates":[[[-59.433008,-34.483094],[-59.420791,-34.476863],[-59.380671,-34.528667],[-59.393573,-34.535204],[-59.433008,-34.483094]]]}},{"type":"Feature","properties":{"AREA":9503055.046851,"PERIMETER":0.0,"TITULAR":"JULIO SARAVI","EDIFICADO":"NO","AñO_DOMINI":1881,"Nº_Mensura":114,"AGRIMENSOR":"AGUSTIN RODRIGUEZ","Parcela_12":0,"Coef_Divis":0},"geometry":{"type":"Polygon","coordinates":[[[-59.433352,-34.48327],[-59.420538,-34.476734],[-59.381158,-34.528914],[-59.394191,-34.535517],[-59.433352,-34.48327]]]}},{"type":"Feature","properties":{"AREA":1675527.471574,"PERIMETER":0.0,"TITULAR":"JUSTO RIVAS Y DIONISIO ACUÑA","EDIFICADO":"NO","AñO_DOMINI":1881,"Nº_Mensura":113,"AGRIMENSOR":"CARLOS SCHUSTER","Parcela_12":0,"Coef_Divis":0},"geometry":{"type":"Polygon","coordinates":[[[-59.417473,-34.512256],[-59.412893,-34.510223],[-59.394036,-34.535439],[-59.399034,-34.53797],[-59.417473,-34.512256]]]}},{"type":"Feature","properties":{"AREA":5358873.891397,"PERIMETER":0.0,"TITULAR":"JORGE Y EDUARDO MORGAN","EDIFICADO":"SI","AñO_DOMINI":1881,"Nº_Mensura":112,"AGRIMENSOR":"GERMAN KURH","Parcela_12":0,"Coef_Divis":0},"geometry":{"type":"Polygon","coordinates":[[[-59.532825,-34.345032],[-59.510536,-34.331704],[-59.491908,-34.3453],[-59.500444,-34.352658],[-59.506135,-34.348528],[-59.516623,-34.35786],[-59.532825,-34.345032]]]}},{"type":"Feature","properties":{"AREA":7756298.865118,"PERIMETER":0.0,"TITULAR":"PETRONA BUSTOS DE RODRIGUEZ","EDIFICADO":"SI","AñO_DOMINI":1881,"Nº_Mensura":111,"AGRIMENSOR":"SALAS","Parcela_12":0,"Coef_Divis":0},"geometry":{"type":"Polygon","coordinates":[[[-59.630692,-34.405066],[-59.622022,-34.397555],[-59.590483,-34.42166],[-59.607724,-34.436823],[-59.623859,-34.425066],[-59.622958,-34.423124],[-59.624519,-34.418299],[-59.625587,-34.414144],[-59.625743,-34.410848],[-59.629006,-34.407949],[-59.630692,-34.405066]]]}},{"type":"Feature","properties":{"AREA":10992168.47265,"PERIMETER":0.0,"TITULAR":"BENITO DAMASO VAZQUEZ","EDIFICADO":"SI","AñO_DOMINI":1877,"Nº_Mensura":110,"AGRIMENSOR":"CASCALLARES","Parcela_12":0,"Coef_Divis":0},"geometry":{"type":"Polygon","coordinates":[[[-59.477883,-34.388776],[-59.475291,-34.38606],[-59.465537,-34.392909],[-59.456685,-34.384494],[-59.460819,-34.381516],[-59.454439,-34.372628],[-59.418779,-34.398984],[-59.422143,-34.400296],[-59.426001,-34.401473],[-59.429023,-34.40476],[-59.430737,-34.406644],[-59.433716,-34.410237],[-59.434768,-34.412799],[-59.436447,-34.414956],[-59.438922,-34.418262],[-59.477883,-34.388776]]]}},{"type":"Feature","properties":{"AREA":5011156.07448,"PERIMETER":0.0,"TITULAR":"PASCULA LESCANO","EDIFICADO":"SI","AñO_DOMINI":1880,"Nº_Mensura":109,"AGRIMENSOR":"CARLOS SCHUSTER","Parcela_12":0,"Coef_Divis":0},"geometry":{"type":"Polygon","coordinates":[[[-59.420538,-34.476734],[-59.414099,-34.473449],[-59.374815,-34.5257],[-59.381999,-34.52934],[-59.420538,-34.476734]]]}},{"type":"Feature","properties":{"AREA":3989195.965754,"PERIMETER":0.0,"TITULAR":"MARTIN DOWLING","EDIFICADO":"SI","AñO_DOMINI":1880,"Nº_Mensura":108,"AGRIMENSOR":"TOMAS DODDS","Parcela_12":0,"Coef_Divis":0},"geometry":{"type":"Polygon","coordinates":[[[-59.487067,-34.530684],[-59.475583,-34.524956],[-59.456459,-34.549154],[-59.468486,-34.554833],[-59.487067,-34.530684]]]}},{"type":"Feature","properties":{"AREA":6409265.206969,"PERIMETER":0.0,"TITULAR":"LAUREANO CASTRO","EDIFICADO":"SI","AñO_DOMINI":1880,"Nº_Mensura":106,"AGRIMENSOR":"ALMEIRA","Parcela_12":0,"Coef_Divis":0},"geometry":{"type":"Polygon","coordinates":[[[-59.334619,-34.431098],[-59.326202,-34.426739],[-59.28598,-34.480622],[-59.294448,-34.484923],[-59.334619,-34.431098]]]}},{"type":"Feature","properties":{"AREA":1946773.630196,"PERIMETER":0.0,"TITULAR":"JUAN FRANCISCO SILVA","EDIFICADO":"SI","AñO_DOMINI":0,"Nº_Mensura":105,"AGRIMENSOR":"CARLOS SCHUSTER","Parcela_12":0,"Coef_Divis":0},"geometry":{"type":"Polygon","coordinates":[[[-59.419847,-34.423972],[-59.418904,-34.420281],[-59.375776,-34.452159],[-59.379574,-34.454101],[-59.419847,-34.423972]]]}},{"type":"Feature","properties":{"AREA":2764838.032791,"PERIMETER":0.0,"TITULAR":"NICOLAS ORMAECHEA","EDIFICADO":"SI","AñO_DOMINI":1880,"Nº_Mensura":104,"AGRIMENSOR":"MUÑIZ","Parcela_12":0,"Coef_Divis":0},"geometry":{"type":"Polygon","coordinates":[[[-59.243846,-34.421625],[-59.241639,-34.418379],[-59.239634,-34.413716],[-59.21828,-34.445004],[-59.225037,-34.448425],[-59.243846,-34.421625]]]}},{"type":"Feature","properties":{"AREA":3917525.003079,"PERIMETER":0.0,"TITULAR":"JOSE MANUEL DOBARRO","EDIFICADO":"SI","AñO_DOMINI":1880,"Nº_Mensura":103,"AGRIMENSOR":"MUÑIZ","Parcela_12":0,"Coef_Divis":0},"geometry":{"type":"Polygon","coordinates":[[[-59.242959,-34.422889],[-59.225037,-34.448425],[-59.237497,-34.454732],[-59.251461,-34.434642],[-59.250083,-34.432388],[-59.247071,-34.428463],[-59.242959,-34.422889]]]}},{"type":"Feature","properties":{"AREA":6363564.480314,"PERIMETER":0.0,"TITULAR":"AVELINA BUSTOS","EDIFICADO":"NO","AñO_DOMINI":1880,"Nº_Mensura":102,"AGRIMENSOR":"CARLOS SCHUSTER","Parcela_12":0,"Coef_Divis":0},"geometry":{"type":"Polygon","coordinates":[[[-59.562802,-34.506628],[-59.579245,-34.493089],[-59.574735,-34.473762],[-59.55439,-34.456887],[-59.562802,-34.506628]]]}},{"type":"Feature","properties":{"AREA":8791040.567316,"PERIMETER":0.0,"TITULAR":"FRANCISCO MALDONADO","EDIFICADO":"SI","AñO_DOMINI":1880,"Nº_Mensura":101,"AGRIMENSOR":"CHAPEAUROUGE","Parcela_12":0,"Coef_Divis":0},"geometry":{"type":"Polygon","coordinates":[[[-59.333287,-34.381922],[-59.32054,-34.370485],[-59.278607,-34.404136],[-59.293845,-34.412849],[-59.333287,-34.381922]]]}},{"type":"Feature","properties":{"AREA":8314699.028542,"PERIMETER":0.0,"TITULAR":"PABLO BUSTOS","EDIFICADO":"SI","AñO_DOMINI":1879,"Nº_Mensura":100,"AGRIMENSOR":"CARLOS SCHUSTER","Parcela_12":0,"Coef_Divis":0},"geometry":{"type":"Polygon","coordinates":[[[-59.605376,-34.434759],[-59.590483,-34.42166],[-59.557019,-34.447899],[-59.571547,-34.460536],[-59.605376,-34.434759]]]}},{"type":"Feature","properties":{"AREA":4304079.47881,"PERIMETER":0.0,"TITULAR":"PABLO BUSTOS","EDIFICADO":"SI","AñO_DOMINI":1879,"Nº_Mensura":100,"AGRIMENSOR":"CARLOS SCHUSTER","Parcela_12":0,"Coef_Divis":0},"geometry":{"type":"Polygon","coordinates":[[[-59.556737,-34.47077],[-59.547269,-34.471659],[-59.554589,-34.514989],[-59.564325,-34.513855],[-59.556737,-34.47077]]]}}]}